{"type":"FeatureCollection","features":[{"type":"Feature","id":680,"geometry":{"type":"MultiLineString","coordinates":[[[-98.3042,29.58534],[-98.30992,29.58174],[-98.32268,29.57668],[-98.3332,29.56784]],[[-99.34983,28.05292],[-99.35016,28.04264],[-99.3512,28.03881],[-99.35622,28.03254],[-99.35857,28.02808],[-99.38427,27.9445],[-99.399,27.8894],[-99.40132,27.86186],[-99.42875,27.76894],[-99.42984,27.76697],[-99.43576,27.76398],[-99.43795,27.76146],[-99.43885,27.75522],[-99.44322,27.74183],[-99.44931,27.71638],[-99.45802,27.69312],[-99.46236,27.68574],[-99.46646,27.68061],[-99.47285,27.66431],[-99.48622,27.64766],[-99.4897,27.62555],[-99.49395,27.60711],[-99.49623,27.60132],[-99.49472,27.5934],[-99.49742,27.58883],[-99.50261,27.57273],[-99.50383,27.55587],[-99.50379,27.54872],[-99.50285,27.54294],[-99.5031,27.50879]],[[-97.48926,35.46192],[-97.47298,35.46282],[-97.4694,35.46478],[-97.46799,35.46812]],[[-94.49142,39.20654],[-94.48349,39.21041],[-94.47426,39.21753],[-94.45618,39.24508]],[[-97.1329,34.44823],[-97.12939,34.44401],[-97.12853,34.43862],[-97.13301,34.42943],[-97.13743,34.4162],[-97.14102,34.40213],[-97.14236,34.38385],[-97.14637,34.37051],[-97.14883,34.35706],[-97.1478,34.34532],[-97.15481,34.32715],[-97.15612,34.31822],[-97.15971,34.30582],[-97.15956,34.28639],[-97.16528,34.25741],[-97.16483,34.25195],[-97.1623,34.24226],[-97.16162,34.23225],[-97.16396,34.21593],[-97.16422,34.19458],[-97.16766,34.18264],[-97.16812,34.17698],[-97.16797,34.16915],[-97.16641,34.1634],[-97.15854,34.15253],[-97.15581,34.14645],[-97.15657,34.12512],[-97.15198,34.10815],[-97.15125,34.08728],[-97.1497,34.07362],[-97.14992,34.06681],[-97.14879,34.05261],[-97.14964,34.03759],[-97.14165,34.00617],[-97.13911,33.99126],[-97.13422,33.97772],[-97.13409,33.95975],[-97.13495,33.94341],[-97.13487,33.93215],[-97.13332,33.91763],[-97.13449,33.89795],[-97.13399,33.84572],[-97.13336,33.84072],[-97.13008,33.82894],[-97.13107,33.82067],[-97.13359,33.81339],[-97.13492,33.8045],[-97.13516,33.75466],[-97.13797,33.7479],[-97.1423,33.74182],[-97.14512,33.73865],[-97.15495,33.73187],[-97.16147,33.7244],[-97.16104,33.71772],[-97.16279,33.70332],[-97.16223,33.6933],[-97.15199,33.67389],[-97.15089,33.66949],[-97.15089,33.66446],[-97.15566,33.65184],[-97.15571,33.64059]],[[-93.32113,43.68381],[-93.32353,43.67171],[-93.32339,43.66836],[-93.31955,43.65895],[-93.32335,43.64658],[-93.32353,43.63905],[-93.32443,43.63493],[-93.33113,43.624],[-93.34517,43.60842],[-93.35613,43.59241],[-93.35736,43.58898],[-93.35888,43.57253],[-93.35914,43.55048],[-93.35502,43.54387],[-93.35425,43.5207],[-93.35486,43.50439],[-93.35113,43.48785],[-93.35101,43.466],[-93.34963,43.44372],[-93.34881,43.34263],[-93.34982,43.29176],[-93.34874,43.24204],[-93.349,43.20289],[-93.34984,43.19751],[-93.35596,43.18696],[-93.35658,43.18442],[-93.35551,43.16263],[-93.35597,43.12652],[-93.3556,43.12392],[-93.34447,43.09579],[-93.34311,43.09053],[-93.34235,43.03832],[-93.34098,43.02453],[-93.3406,43.00922],[-93.34097,42.98784],[-93.34937,42.97062],[-93.35058,42.96582],[-93.35101,42.90856],[-93.34975,42.84816],[-93.34999,42.81853],[-93.35246,42.81287],[-93.37042,42.78897],[-93.38012,42.77419],[-93.39639,42.7464],[-93.4154,42.72865],[-93.44645,42.68788],[-93.4698,42.65248],[-93.48486,42.62678],[-93.50018,42.61312],[-93.55777,42.56504],[-93.56338,42.55984],[-93.56475,42.55756],[-93.56741,42.54971],[-93.56723,42.52548],[-93.56874,42.50001],[-93.56931,42.44878]],[[-98.60831,29.31661],[-98.6254,29.30199],[-98.64226,29.28957],[-98.6468,29.28722],[-98.71518,29.25918],[-98.77447,29.24145],[-98.77972,29.23746],[-98.79418,29.2223],[-98.84518,29.18256],[-98.89072,29.13442],[-98.90412,29.12227],[-98.90656,29.12079],[-98.92288,29.11625],[-98.98271,29.07019],[-99.00078,29.06094],[-99.03015,29.04388],[-99.04924,29.02872],[-99.07488,28.97001],[-99.08213,28.94667],[-99.09432,28.93329],[-99.10582,28.91784],[-99.11115,28.90926],[-99.11485,28.89977],[-99.11687,28.8915],[-99.11691,28.88316],[-99.10781,28.86599],[-99.10713,28.86212],[-99.13983,28.74666],[-99.15406,28.72362],[-99.16148,28.7004],[-99.17601,28.6865],[-99.18101,28.6807],[-99.18326,28.67687],[-99.1842,28.67132],[-99.18373,28.66807],[-99.17828,28.64415],[-99.17935,28.63845],[-99.2328,28.46163],[-99.23625,28.45335],[-99.2388,28.45023],[-99.2471,28.44571],[-99.25063,28.44181],[-99.2515,28.4176],[-99.27109,28.36167],[-99.27316,28.33207],[-99.27564,28.32205],[-99.27117,28.31389],[-99.27127,28.3093],[-99.27774,28.29956],[-99.27973,28.29384],[-99.31051,28.19283],[-99.31456,28.18056],[-99.32482,28.15466],[-99.32553,28.1352],[-99.34893,28.05898],[-99.34983,28.05292]],[[-94.55847,39.1705],[-94.55215,39.17269],[-94.53675,39.17435],[-94.53268,39.17613],[-94.51796,39.18666],[-94.50621,39.20124],[-94.49831,39.20498],[-94.49142,39.20654]],[[-98.50082,29.43071],[-98.49815,29.43372],[-98.48651,29.43995],[-98.48446,29.44039],[-98.4779,29.43895]],[[-98.4779,29.43895],[-98.46036,29.43845],[-98.44293,29.43976],[-98.41698,29.45271],[-98.41359,29.45561]],[[-98.40403,29.47952],[-98.40646,29.4694],[-98.41359,29.45561]],[[-97.39005,31.08957],[-97.40785,31.08378],[-97.43551,31.061],[-97.45353,31.05393],[-97.46641,31.0468],[-97.47254,31.03318],[-97.47825,31.02279],[-97.5015,30.9886],[-97.50923,30.98038],[-97.52804,30.96405],[-97.53462,30.95729],[-97.53865,30.9478],[-97.5414,30.9319],[-97.54578,30.91944],[-97.57747,30.8823],[-97.58939,30.85681]],[[-92.12298,46.76502],[-92.11311,46.77376],[-92.1058,46.77837],[-92.0982,46.78442],[-92.08988,46.79373],[-92.07429,46.80047],[-92.0631,46.80631],[-92.06128,46.80789],[-92.06115,46.80931]],[[-93.24467,44.08852],[-93.24751,44.08086],[-93.2523,44.07129],[-93.24717,44.03589],[-93.24694,44.02888],[-93.24786,44.02265],[-93.25412,44.01028],[-93.25555,43.96553],[-93.27706,43.92624],[-93.27686,43.86639],[-93.27772,43.86275],[-93.28809,43.84321],[-93.28871,43.84083],[-93.2888,43.80965],[-93.29015,43.80694],[-93.30613,43.79325],[-93.30783,43.79105],[-93.30876,43.78908],[-93.3093,43.77332],[-93.31462,43.76263],[-93.31785,43.75384],[-93.32132,43.7315],[-93.31989,43.7176],[-93.31966,43.6942],[-93.32113,43.68381]],[[-97.49282,35.46201],[-97.48926,35.46192]],[[-94.67315,39.03999],[-94.64034,39.04968],[-94.62995,39.05591],[-94.62756,39.06043],[-94.61958,39.0681],[-94.61639,39.07362],[-94.60734,39.07594],[-94.5994,39.07541],[-94.59595,39.07677],[-94.59383,39.07912],[-94.59098,39.09107],[-94.59117,39.09631]],[[-93.28271,44.74029],[-93.28347,44.73446],[-93.28161,44.72083],[-93.28379,44.71341],[-93.28547,44.70286],[-93.29195,44.69093],[-93.29328,44.68657],[-93.29401,44.65782],[-93.29833,44.63013],[-93.29804,44.61877],[-93.29572,44.60839],[-93.29814,44.60053],[-93.29775,44.58765],[-93.29891,44.54993],[-93.30118,44.54124],[-93.30114,44.53574],[-93.30012,44.53194],[-93.2891,44.51397],[-93.28803,44.51107],[-93.28828,44.50818],[-93.29099,44.50062],[-93.29203,44.46966],[-93.29209,44.3858],[-93.29328,44.37686],[-93.29254,44.3696],[-93.2932,44.3288],[-93.29491,44.3239],[-93.30038,44.31968],[-93.30543,44.31734],[-93.30805,44.31473],[-93.30896,44.29545],[-93.30791,44.28313],[-93.29855,44.27474],[-93.28424,44.24934],[-93.27865,44.23537],[-93.27682,44.22519],[-93.27507,44.22015],[-93.25848,44.2029],[-93.25511,44.19822],[-93.25514,44.19131],[-93.25882,44.17326],[-93.25735,44.15949],[-93.25727,44.15105],[-93.25605,44.14705],[-93.24861,44.13775],[-93.24792,44.13596],[-93.24467,44.08852]],[[-96.23725,38.41543],[-96.25418,38.39187],[-96.26652,38.37918],[-96.27206,38.36963],[-96.28607,38.35427],[-96.29621,38.34003],[-96.30683,38.33089],[-96.33933,38.31102],[-96.348,38.30323],[-96.35572,38.29228],[-96.37201,38.27742],[-96.37983,38.26752],[-96.39105,38.25622],[-96.3933,38.2509],[-96.39451,38.24231],[-96.398,38.23629],[-96.40839,38.22983],[-96.42414,38.22603],[-96.42801,38.22422],[-96.43401,38.21788],[-96.43572,38.20873],[-96.44097,38.20325],[-96.44595,38.19557],[-96.46419,38.1784],[-96.473,38.17315],[-96.49328,38.15142],[-96.49641,38.14966],[-96.52357,38.1419],[-96.53057,38.13704],[-96.5401,38.13312],[-96.55667,38.1224],[-96.56581,38.11832],[-96.57244,38.11158],[-96.57558,38.10328],[-96.58467,38.08745],[-96.59414,38.07689],[-96.63731,38.04899],[-96.64515,38.04267],[-96.68305,38.00669],[-96.70726,37.98542],[-96.74831,37.94498],[-96.75595,37.93908],[-96.76499,37.9338],[-96.7777,37.9298],[-96.79981,37.9161],[-96.82676,37.90358],[-96.83121,37.90074],[-96.83454,37.89684],[-96.84498,37.87746],[-96.85681,37.86821],[-96.86135,37.85628],[-96.8627,37.85441],[-96.88357,37.83549],[-96.90558,37.81732],[-96.91597,37.81089],[-96.92395,37.80278],[-96.94297,37.78711],[-96.9538,37.78041],[-96.98893,37.76345],[-96.99967,37.76116],[-97.02501,37.75161],[-97.04821,37.74525],[-97.0669,37.73725],[-97.09431,37.72828],[-97.16408,37.69662],[-97.18604,37.68299]],[[-93.02895,45.21842],[-93.02797,45.23975],[-93.02576,45.24744],[-93.02128,45.25604],[-93.01189,45.26263],[-93.00331,45.27822],[-93.0024,45.30141],[-93.00323,45.32233],[-93.00435,45.33096],[-93.0042,45.33981],[-92.99954,45.34986],[-92.99168,45.3842],[-92.99509,45.3992],[-92.99425,45.40328],[-92.98972,45.41327],[-92.9894,45.45042],[-92.99044,45.45412],[-92.99615,45.46371],[-92.99697,45.48963],[-92.9937,45.5021],[-92.99338,45.51253],[-92.99102,45.52923],[-92.99084,45.56319],[-92.99325,45.58425],[-92.99623,45.59277],[-92.99257,45.61631],[-92.99267,45.67163],[-92.98997,45.68245],[-92.99004,45.68589],[-92.99213,45.69388],[-92.9926,45.70229],[-92.99208,45.74773],[-92.98981,45.76589],[-92.99057,45.77718],[-92.99046,45.80185],[-92.98949,45.80643],[-92.98368,45.81807],[-92.98411,45.82664],[-92.9815,45.83606],[-92.97377,45.85179],[-92.96716,45.89679],[-92.96637,45.93603],[-92.95657,45.97352]],[[-92.95657,45.97352],[-92.95519,45.97869],[-92.95357,45.98148],[-92.94521,45.98751],[-92.94061,45.99363],[-92.93689,46.00038],[-92.92599,46.02342],[-92.92458,46.03711],[-92.9139,46.05347],[-92.88939,46.10147],[-92.88825,46.1047],[-92.88791,46.14352],[-92.88672,46.14932],[-92.87032,46.16787],[-92.85785,46.17765],[-92.84446,46.20255],[-92.83608,46.21653],[-92.82923,46.22564],[-92.82667,46.23353],[-92.82637,46.23689],[-92.82532,46.25301],[-92.82523,46.272],[-92.81969,46.28874],[-92.82028,46.29344],[-92.82457,46.30241],[-92.82761,46.31353],[-92.82781,46.3175],[-92.82689,46.32099],[-92.80897,46.35047],[-92.79331,46.37135],[-92.7832,46.38304],[-92.77327,46.39994],[-92.76207,46.40808],[-92.75963,46.41066],[-92.74629,46.43556],[-92.73916,46.4445],[-92.73264,46.44985],[-92.72117,46.46421],[-92.7148,46.47567],[-92.70731,46.48512],[-92.67496,46.50498],[-92.66667,46.51323],[-92.62986,46.53331],[-92.60739,46.55505],[-92.58855,46.56807],[-92.58565,46.57169],[-92.58544,46.58025],[-92.58327,46.58457],[-92.56789,46.59935],[-92.5478,46.61656],[-92.53339,46.62554],[-92.53159,46.62868],[-92.53108,46.63352],[-92.52936,46.63554],[-92.50471,46.64971],[-92.49084,46.6544],[-92.48317,46.65875],[-92.46566,46.67323],[-92.46236,46.67864],[-92.45806,46.68869],[-92.45615,46.69026],[-92.438,46.69838],[-92.43275,46.69957],[-92.39838,46.69986],[-92.38736,46.69936],[-92.36874,46.69652],[-92.34292,46.69667],[-92.28356,46.70625],[-92.27282,46.71073],[-92.26162,46.71195],[-92.23669,46.72183],[-92.22615,46.72501],[-92.22112,46.72611],[-92.21292,46.72622],[-92.20951,46.72697],[-92.20461,46.72882],[-92.20129,46.73243],[-92.1853,46.7386],[-92.18034,46.73855],[-92.17271,46.73586],[-92.1636,46.73637],[-92.143,46.75111],[-92.13577,46.75418],[-92.12799,46.75955],[-92.12298,46.76502]],[[-97.70802,30.31475],[-97.7088,30.31221],[-97.73043,30.27683],[-97.73702,30.25881],[-97.73506,30.24577],[-97.73547,30.24354],[-97.75597,30.20873],[-97.77151,30.18909],[-97.78735,30.165],[-97.80189,30.12525],[-97.81369,30.09786],[-97.82401,30.07893],[-97.84507,30.03592],[-97.85914,30.01514],[-97.87001,29.99742],[-97.87341,29.98459],[-97.87564,29.96427],[-97.8802,29.94697],[-97.90329,29.90369],[-97.91885,29.88601]],[[-98.39382,29.52429],[-98.39153,29.53067],[-98.38737,29.53524],[-98.36042,29.55027],[-98.3495,29.55434],[-98.3332,29.56784]],[[-98.60831,29.31661],[-98.6026,29.32158],[-98.59823,29.32412],[-98.53313,29.35087],[-98.52859,29.35359],[-98.5254,29.35659],[-98.51493,29.37417],[-98.51266,29.38147],[-98.51118,29.39619]],[[-97.18604,37.68299],[-97.19346,37.67708],[-97.19773,37.67519],[-97.22859,37.67559],[-97.23997,37.67193],[-97.24536,37.66913],[-97.25446,37.6606],[-97.27158,37.6501],[-97.28189,37.64176],[-97.28878,37.63059],[-97.29219,37.62771],[-97.2971,37.62504],[-97.30289,37.62358],[-97.3049,37.62214],[-97.31226,37.60563],[-97.323,37.60172]],[[-94.59453,39.10684],[-94.59335,39.10469],[-94.5935,39.09988],[-94.59117,39.09631]],[[-94.59453,39.10684],[-94.57705,39.10677],[-94.57046,39.10604]],[[-98.39782,29.5102],[-98.40403,29.47952]],[[-97.09346,32.05605],[-97.09479,32.04471],[-97.09588,32.00385],[-97.11765,31.97177],[-97.11867,31.9646],[-97.08393,31.88541],[-97.08145,31.87726],[-97.08527,31.85148],[-97.09768,31.81997],[-97.09893,31.80798],[-97.10211,31.79667],[-97.10464,31.75687],[-97.10212,31.70105],[-97.10006,31.69275],[-97.09969,31.68525],[-97.09924,31.66892],[-97.10134,31.65295],[-97.10057,31.65019],[-97.09651,31.64285],[-97.09568,31.6294],[-97.0966,31.62502],[-97.10778,31.60146]],[[-93.56931,42.44878],[-93.57022,42.43408],[-93.57075,42.39521],[-93.56936,42.31038],[-93.57051,42.29701],[-93.57068,42.2416],[-93.57179,42.22452],[-93.57047,42.20214],[-93.57083,42.16353],[-93.56932,42.14993],[-93.55558,42.12998],[-93.5535,42.12497],[-93.55262,42.11892],[-93.55266,42.11622],[-93.55412,42.11233],[-93.5649,42.09447],[-93.56945,42.05538],[-93.56982,42.04129],[-93.5714,42.02409],[-93.56974,41.95891],[-93.57003,41.9264],[-93.57121,41.89892],[-93.57035,41.79494],[-93.57093,41.77691],[-93.57022,41.75921],[-93.57787,41.74083],[-93.57591,41.69228],[-93.57607,41.68544],[-93.57862,41.67115],[-93.57581,41.66256],[-93.57561,41.65203]],[[-94.85994,38.82486],[-94.85315,38.8299],[-94.83098,38.84361],[-94.79713,38.87089],[-94.78621,38.89794],[-94.77797,38.90772],[-94.76614,38.91799],[-94.75206,38.93437],[-94.74731,38.93874]],[[-97.15571,33.64059],[-97.15493,33.63032],[-97.14883,33.6133],[-97.1497,33.61099],[-97.1563,33.60515],[-97.16027,33.59947],[-97.16434,33.58733],[-97.16579,33.57984],[-97.1662,33.52042],[-97.16587,33.5133],[-97.16229,33.48868],[-97.16198,33.4806],[-97.16404,33.4595],[-97.16401,33.43926],[-97.16486,33.43667],[-97.1739,33.42553],[-97.1754,33.42215],[-97.17759,33.36919],[-97.18162,33.35976],[-97.18233,33.35604],[-97.18076,33.32412],[-97.17788,33.30423],[-97.1781,33.27069],[-97.17683,33.24133],[-97.17607,33.2362],[-97.1695,33.21698],[-97.16665,33.21221]],[[-94.15158,39.89964],[-94.15776,39.8882],[-94.1689,39.87121],[-94.21979,39.75694],[-94.22109,39.72613],[-94.2446,39.63186],[-94.26226,39.57063],[-94.28235,39.52124],[-94.32604,39.45185],[-94.33441,39.43706],[-94.38427,39.34595],[-94.41052,39.29625],[-94.412,39.29114],[-94.41463,39.28696],[-94.42148,39.27848],[-94.43911,39.26842],[-94.44636,39.26548],[-94.44886,39.26256],[-94.4502,39.25342],[-94.45618,39.24508]],[[-97.46013,35.54121],[-97.4612,35.538],[-97.45938,35.52825],[-97.45975,35.51111],[-97.46475,35.49344],[-97.46502,35.4821],[-97.46616,35.47317],[-97.46799,35.46812]],[[-93.77731,41.59217],[-93.77775,41.58381],[-93.77632,41.54772],[-93.77307,41.52317],[-93.78023,41.51195],[-93.78044,41.50423],[-93.77956,41.4543],[-93.78065,41.43487],[-93.77973,41.41121],[-93.78073,41.38779],[-93.78063,41.3695],[-93.7792,41.34628],[-93.78016,41.32233],[-93.7783,41.31347],[-93.77965,41.29209],[-93.77842,41.27833],[-93.78082,41.25001],[-93.78083,41.22948],[-93.78718,41.1978],[-93.78377,41.18169],[-93.78408,41.16308],[-93.78832,41.14605],[-93.78774,41.13524],[-93.78191,41.12502],[-93.78171,41.11157],[-93.77732,41.10369],[-93.77694,41.10108],[-93.78107,41.08466],[-93.78086,41.07188],[-93.78208,41.05258],[-93.79383,41.03786],[-93.79478,41.03475],[-93.79407,41.01743],[-93.79756,41.00822],[-93.7972,40.96503],[-93.79981,40.94445],[-93.79676,40.92603],[-93.79732,40.91412],[-93.79648,40.90297],[-93.80056,40.88926],[-93.80125,40.88434],[-93.80475,40.84299],[-93.80649,40.83986],[-93.82394,40.81866],[-93.83398,40.79654],[-93.83481,40.79219],[-93.83671,40.7583],[-93.84301,40.73753],[-93.84345,40.72308],[-93.84571,40.71033],[-93.8463,40.68799],[-93.85247,40.66602],[-93.85972,40.65258],[-93.89386,40.62035],[-93.90897,40.60486],[-93.92116,40.59027],[-93.94626,40.56638],[-93.94951,40.56184],[-93.99073,40.41878],[-94.01087,40.34559],[-94.01328,40.21356],[-94.01493,40.18069],[-94.01696,40.17656],[-94.06603,40.1103],[-94.09279,40.08194],[-94.09621,40.00692],[-94.09448,39.97947],[-94.09501,39.97331],[-94.1084,39.95347],[-94.13784,39.92475],[-94.15158,39.89964]],[[-96.23725,38.41543],[-96.2326,38.41358],[-96.22539,38.41602],[-96.20878,38.42645],[-96.20489,38.42731],[-96.19587,38.42733],[-96.17934,38.42289],[-96.17191,38.416],[-96.16952,38.41472],[-96.14754,38.41166],[-96.13552,38.41104],[-96.10972,38.41131],[-96.09239,38.41031],[-96.07056,38.41153],[-96.04582,38.41036],[-96.01829,38.41041],[-95.98281,38.40836],[-95.93008,38.41465],[-95.89494,38.42575],[-95.88394,38.42847],[-95.82394,38.42582],[-95.77504,38.42696],[-95.74124,38.42628],[-95.69287,38.4384],[-95.66293,38.44436],[-95.64598,38.44661],[-95.61372,38.45359],[-95.57983,38.45282],[-95.55483,38.45823],[-95.52874,38.47123],[-95.51296,38.47377],[-95.48954,38.48577],[-95.47537,38.48846],[-95.46211,38.49611],[-95.43462,38.50358],[-95.43152,38.50544],[-95.40845,38.52482],[-95.40041,38.5285],[-95.38724,38.531],[-95.38347,38.53237],[-95.36264,38.54875],[-95.35639,38.55207],[-95.34322,38.55603],[-95.32612,38.55891],[-95.31536,38.56159],[-95.29799,38.56834],[-95.28577,38.5706],[-95.26665,38.57582],[-95.24463,38.58351],[-95.23835,38.58735],[-95.23512,38.59118],[-95.23396,38.59388],[-95.23258,38.60408],[-95.2322,38.62739],[-95.23058,38.63191],[-95.22498,38.6372],[-95.20545,38.64486],[-95.18473,38.65946],[-95.13314,38.67903],[-95.12081,38.68493],[-95.10101,38.69664],[-95.06142,38.70839],[-95.01126,38.7426],[-95.00165,38.7462],[-94.98023,38.75222],[-94.97146,38.75601],[-94.94884,38.76806],[-94.9258,38.78308],[-94.89083,38.80821],[-94.86909,38.81832],[-94.85994,38.82486]],[[-97.323,37.60172],[-97.32425,37.59813],[-97.32425,37.58625],[-97.326,37.58091],[-97.32614,37.57078],[-97.32584,37.54992],[-97.3243,37.53853],[-97.32386,37.49648],[-97.32138,37.43498],[-97.32127,37.41578],[-97.32602,37.3962],[-97.32288,37.37301],[-97.32327,37.36874],[-97.32188,37.34897],[-97.3234,37.34266],[-97.33717,37.32814],[-97.33951,37.32347],[-97.34036,37.31119],[-97.34007,37.26759],[-97.33882,37.25869],[-97.33873,37.22069],[-97.33986,37.21148],[-97.34005,37.19848],[-97.34187,37.19262],[-97.33955,37.18233],[-97.33814,37.01766],[-97.33929,37.00994],[-97.34377,36.99568],[-97.34537,36.98751],[-97.34573,36.94589],[-97.35415,36.89823],[-97.35154,36.88283],[-97.34505,36.85515],[-97.34241,36.81453],[-97.34293,36.80707],[-97.34581,36.79031],[-97.34613,36.78137],[-97.34589,36.61307],[-97.34523,36.59583],[-97.34563,36.54382],[-97.34415,36.53459],[-97.33783,36.52035],[-97.33608,36.50567],[-97.32841,36.48773],[-97.32706,36.48132],[-97.32698,36.40019]],[[-97.10778,31.60146],[-97.10902,31.59732],[-97.11029,31.58112],[-97.11586,31.57143],[-97.11714,31.56121],[-97.12711,31.54316],[-97.1312,31.53068],[-97.13479,31.52266]],[[-97.13479,31.52266],[-97.14597,31.50153],[-97.16288,31.473],[-97.18651,31.43559],[-97.20631,31.40022],[-97.21271,31.38499],[-97.22161,31.34299],[-97.22409,31.33569],[-97.22943,31.32564],[-97.23787,31.31853],[-97.24024,31.31539],[-97.25266,31.29527],[-97.25705,31.28385],[-97.2659,31.27199],[-97.2844,31.24003],[-97.28665,31.23808],[-97.28734,31.23491],[-97.30077,31.21162],[-97.30826,31.1943],[-97.33435,31.12758],[-97.33576,31.12628],[-97.34815,31.12361],[-97.35164,31.12145],[-97.35324,31.11897],[-97.35922,31.1027],[-97.3616,31.09901],[-97.36887,31.09595],[-97.39005,31.08957]],[[-97.48926,35.46192],[-97.49121,35.46121],[-97.49179,35.46008],[-97.48636,35.44627],[-97.48621,35.42986],[-97.48773,35.41968],[-97.49245,35.41048],[-97.49428,35.40458],[-97.49485,35.39172]],[[-97.32698,36.40019],[-97.32692,36.34001],[-97.32829,36.30731],[-97.32763,36.26951],[-97.32584,36.25373],[-97.32595,36.24784],[-97.32829,36.23232],[-97.32855,36.18416],[-97.32738,36.1576],[-97.32849,36.15316],[-97.34222,36.12786],[-97.34484,36.12057],[-97.3452,36.0298],[-97.35484,35.97608],[-97.35702,35.97077],[-97.39315,35.90978],[-97.39405,35.90464],[-97.3947,35.84243],[-97.39854,35.83521],[-97.41046,35.82483],[-97.41341,35.82131],[-97.4155,35.81706],[-97.41635,35.81214],[-97.41688,35.78957],[-97.41632,35.68205],[-97.42084,35.67011],[-97.42424,35.65302],[-97.4249,35.60294],[-97.42686,35.59885]],[[-97.58939,30.85681],[-97.60177,30.8296],[-97.61104,30.81491],[-97.62102,30.79232],[-97.62864,30.76695],[-97.63431,30.7533],[-97.6487,30.70974],[-97.66071,30.67968],[-97.67922,30.64987],[-97.68856,30.64033],[-97.69162,30.63178],[-97.69165,30.62886],[-97.68625,30.60723],[-97.68662,30.60391],[-97.69045,30.59422],[-97.69273,30.58443],[-97.69197,30.53484],[-97.68625,30.51016],[-97.68144,30.49712],[-97.67512,30.48484],[-97.66674,30.45755],[-97.66625,30.45249],[-97.67496,30.40563],[-97.67467,30.402],[-97.67157,30.39381],[-97.67404,30.38124],[-97.67586,30.37735],[-97.70483,30.33165],[-97.70802,30.31475]],[[-97.42686,35.59885],[-97.43436,35.59232],[-97.45136,35.56624],[-97.45793,35.54509],[-97.46013,35.54121]],[[-97.91885,29.88601],[-97.92471,29.88003],[-97.9392,29.86945],[-98.02217,29.79426],[-98.02903,29.78668],[-98.06057,29.74361],[-98.08506,29.72251],[-98.08817,29.71654],[-98.0913,29.70367],[-98.09598,29.69795],[-98.09912,29.69596],[-98.1225,29.68661],[-98.14227,29.68257],[-98.16946,29.66326],[-98.18326,29.65738],[-98.20881,29.64138],[-98.25892,29.6157],[-98.27741,29.59964],[-98.3042,29.58534]],[[-93.77731,41.59217],[-93.77694,41.6448],[-93.77564,41.64733],[-93.77228,41.65032],[-93.76483,41.65151],[-93.71688,41.65275],[-93.64177,41.64955],[-93.62178,41.64946],[-93.59235,41.65027],[-93.57561,41.65203]],[[-94.67315,39.03999],[-94.67956,39.03878],[-94.68478,39.03581],[-94.68789,39.03287],[-94.68989,39.02856],[-94.69328,39.01493],[-94.69439,39.00094],[-94.69761,38.99285],[-94.73464,38.9541],[-94.74731,38.93874]],[[-97.49485,35.39172],[-97.49415,35.34449],[-97.48987,35.33369],[-97.49028,35.31288],[-97.48969,35.29729],[-97.48536,35.28489],[-97.48536,35.21851],[-97.48474,35.21345],[-97.4809,35.20758],[-97.48006,35.20375],[-97.48071,35.19948],[-97.49372,35.18226],[-97.49453,35.17697],[-97.49349,35.17278],[-97.49057,35.16807],[-97.47044,35.1462],[-97.42141,35.09322],[-97.37789,35.04756],[-97.37597,35.04112],[-97.37608,35.00505],[-97.36883,34.95925],[-97.36937,34.95056],[-97.3675,34.94172],[-97.35752,34.92174],[-97.35428,34.9104],[-97.35232,34.9061],[-97.33822,34.88827],[-97.33568,34.88347],[-97.32645,34.85787],[-97.31692,34.84325],[-97.3108,34.83174],[-97.30796,34.82309],[-97.30479,34.80535],[-97.30123,34.79541],[-97.29566,34.78606],[-97.28491,34.76378],[-97.27899,34.75531],[-97.26489,34.7419],[-97.26007,34.73589],[-97.25444,34.72699],[-97.24979,34.71451],[-97.24703,34.70925],[-97.23628,34.69664],[-97.22904,34.68465],[-97.2214,34.66077],[-97.2196,34.64537],[-97.21718,34.63356],[-97.21631,34.62274],[-97.21243,34.61115],[-97.21081,34.60187],[-97.20359,34.58586],[-97.19833,34.57038],[-97.19272,34.55885],[-97.18492,34.52511],[-97.18168,34.51805],[-97.17679,34.51016],[-97.16093,34.48768],[-97.15816,34.48183],[-97.15612,34.47464],[-97.15377,34.4704],[-97.1329,34.44823]]]},"properties":{"region":"austin","name":"I35"}},{"type":"Feature","id":636,"geometry":{"type":"MultiLineString","coordinates":[[[-85.1512,33.68517],[-85.12495,33.68547],[-85.10147,33.69064],[-85.09305,33.69403],[-85.06314,33.70114],[-85.03585,33.71524],[-85.0159,33.71794],[-84.97064,33.71676],[-84.9464,33.72138],[-84.91992,33.72263],[-84.90642,33.72524],[-84.87846,33.72134],[-84.85753,33.72149],[-84.82262,33.71781],[-84.78022,33.72222],[-84.76178,33.72799],[-84.74006,33.73179],[-84.73306,33.73439],[-84.72914,33.73719],[-84.71966,33.74713],[-84.71139,33.75271],[-84.70103,33.75453],[-84.66065,33.76664],[-84.61238,33.77674],[-84.6057,33.77701],[-84.55623,33.77353],[-84.54538,33.77174],[-84.52199,33.76514],[-84.49717,33.76616],[-84.49267,33.76469]],[[-87.55273,33.17013],[-87.54716,33.17128],[-87.53182,33.17039],[-87.50143,33.17622],[-87.48069,33.17505],[-87.46353,33.17253],[-87.44734,33.17295],[-87.42073,33.17142],[-87.39865,33.17582],[-87.37914,33.17789],[-87.36366,33.18275],[-87.34236,33.18375],[-87.3204,33.19052],[-87.31504,33.19053],[-87.29739,33.18826],[-87.28205,33.1878],[-87.26986,33.18913],[-87.2439,33.19482],[-87.23752,33.1974],[-87.22218,33.20877],[-87.21942,33.21008],[-87.19904,33.2133],[-87.19524,33.2146],[-87.17941,33.22314],[-87.15663,33.23775],[-87.14481,33.24632],[-87.12693,33.25209],[-87.11956,33.25679],[-87.11395,33.26176],[-87.10582,33.27178],[-87.08912,33.28441],[-87.08022,33.29006],[-87.0698,33.30243],[-87.05704,33.31396],[-87.0496,33.32282],[-87.02755,33.34291]],[[-96.62763,32.69925],[-96.62395,32.70115],[-96.62022,32.70194],[-96.58294,32.70494],[-96.55076,32.70251],[-96.53212,32.70023],[-96.47779,32.69803],[-96.3725,32.69527],[-96.36337,32.69713],[-96.3318,32.71477],[-96.30988,32.71638],[-96.27198,32.70013],[-96.05483,32.64522],[-96.01014,32.62835],[-95.95719,32.61043],[-95.93392,32.60089],[-95.9261,32.59946],[-95.9071,32.59848],[-95.90156,32.59707],[-95.80482,32.55835],[-95.7793,32.5507],[-95.72401,32.53071],[-95.68845,32.51514],[-95.63746,32.50558],[-95.62295,32.50116],[-95.58791,32.49927],[-95.5825,32.49833],[-95.56911,32.49563],[-95.52845,32.48427],[-95.49058,32.47988],[-95.45998,32.47038],[-95.43958,32.46901],[-95.41131,32.46844],[-95.34544,32.46851],[-95.30735,32.45727],[-95.27806,32.45228],[-95.19981,32.45248],[-95.17785,32.44756],[-95.16152,32.44836],[-95.15437,32.44789],[-95.12901,32.4392],[-95.11953,32.43772],[-95.10208,32.43753],[-95.06906,32.4422],[-95.03244,32.43817],[-94.98142,32.43637],[-94.91895,32.43276]],[[-96.82329,32.64228],[-96.79781,32.64279],[-96.75781,32.65352],[-96.73569,32.65779],[-96.72671,32.66173]],[[-80.92225,34.06801],[-80.91149,34.0716],[-80.90002,34.07736],[-80.85589,34.09515],[-80.81164,34.11088],[-80.80467,34.11409],[-80.75517,34.13943],[-80.71385,34.16832],[-80.69327,34.18672],[-80.67571,34.19395],[-80.65822,34.2025],[-80.63993,34.21493],[-80.61999,34.21953],[-80.56088,34.21357],[-80.54536,34.21669],[-80.51301,34.21541],[-80.50572,34.21463],[-80.48446,34.20999],[-80.45474,34.2083],[-80.44328,34.20885],[-80.42139,34.21342],[-80.41543,34.21347],[-80.38475,34.20508],[-80.35316,34.20201],[-80.33207,34.19575],[-80.29791,34.19605],[-80.2863,34.19543],[-80.23049,34.1874],[-80.21876,34.18652],[-80.16999,34.1895],[-80.14006,34.19401],[-80.09295,34.1983],[-80.07882,34.19854],[-80.03861,34.20814],[-80.0209,34.20501],[-79.98554,34.20574],[-79.96307,34.20469],[-79.92931,34.207],[-79.90381,34.20247],[-79.87374,34.20402],[-79.86871,34.20306],[-79.85195,34.1972],[-79.8439,34.19305]],[[-81.1106,34.03672],[-81.10701,34.03785],[-81.09365,34.0394],[-81.05294,34.05712],[-81.04615,34.063],[-81.04217,34.0654],[-81.03767,34.06629],[-81.02251,34.06607],[-81.00881,34.07265],[-81.0051,34.07333],[-80.97634,34.07275],[-80.96526,34.0739],[-80.94386,34.07359],[-80.92785,34.0683],[-80.92225,34.06801]],[[-81.93711,33.56507],[-81.91531,33.57061],[-81.90014,33.57876],[-81.88944,33.58333],[-81.86813,33.59892],[-81.86432,33.60071],[-81.84361,33.60642],[-81.82224,33.62225],[-81.81664,33.62515],[-81.78866,33.63292],[-81.7498,33.63648],[-81.74448,33.63761],[-81.7235,33.64545],[-81.66878,33.66858],[-81.62294,33.68328],[-81.60285,33.70143],[-81.59935,33.70378],[-81.58028,33.71257],[-81.53033,33.75001],[-81.52608,33.75058],[-81.52477,33.75377],[-81.51734,33.75992],[-81.48254,33.78539],[-81.44988,33.81869],[-81.41915,33.84039],[-81.39259,33.86178],[-81.37595,33.88155],[-81.31903,33.91488],[-81.30916,33.91919],[-81.29098,33.9254],[-81.26753,33.93936],[-81.23724,33.95585],[-81.20047,33.96905],[-81.19721,33.97308],[-81.19133,33.98652],[-81.18779,33.99022],[-81.17852,33.99481],[-81.17479,33.998],[-81.17355,34.00014],[-81.16868,34.0032],[-81.14249,34.01367],[-81.11859,34.034],[-81.1106,34.03672]],[[-88.77064,32.34295],[-88.74264,32.35044],[-88.73094,32.34894],[-88.70654,32.34884],[-88.69805,32.34954],[-88.67915,32.36084],[-88.66624,32.37275],[-88.65174,32.37994],[-88.60134,32.38944],[-88.52344,32.41284],[-88.49464,32.41325],[-88.47604,32.41064],[-88.46443,32.41245],[-88.45974,32.41494],[-88.44864,32.43015],[-88.43853,32.43644],[-88.43033,32.44044],[-88.39189,32.45324]],[[-84.24238,33.71457],[-84.21049,33.71051],[-84.19166,33.7026],[-84.13271,33.70354],[-84.1139,33.70101],[-84.10033,33.70252],[-84.08758,33.7],[-84.06858,33.68924],[-84.05962,33.67712],[-84.05669,33.67512],[-84.02932,33.66489],[-84.0176,33.65724],[-84.00318,33.65295],[-83.97268,33.63217],[-83.94498,33.62777],[-83.92357,33.61641],[-83.91062,33.61425],[-83.89493,33.61287],[-83.87745,33.60732],[-83.8711,33.60815],[-83.86014,33.61405],[-83.85358,33.61522],[-83.83675,33.61529],[-83.82401,33.61233],[-83.79243,33.60998],[-83.74877,33.61254],[-83.70784,33.61101],[-83.65915,33.60277],[-83.61828,33.58912],[-83.57391,33.57738],[-83.56447,33.57593],[-83.53873,33.57788],[-83.53363,33.57719],[-83.48552,33.55548],[-83.44053,33.55559],[-83.40238,33.55373],[-83.37349,33.55524],[-83.33011,33.54413],[-83.29128,33.53297],[-83.24299,33.53664],[-83.21125,33.54559],[-83.13198,33.54974],[-83.07847,33.54401],[-83.05464,33.55018],[-83.03365,33.54689],[-82.99987,33.53811],[-82.9858,33.53195],[-82.95818,33.52795],[-82.9501,33.52799],[-82.9289,33.53062],[-82.89841,33.52882],[-82.87484,33.52325],[-82.82088,33.50031],[-82.81352,33.49805],[-82.78158,33.50083],[-82.76635,33.5037],[-82.75143,33.50427],[-82.71756,33.50315],[-82.66009,33.49022],[-82.6546,33.48989],[-82.62146,33.49504],[-82.59939,33.49706],[-82.56597,33.50498],[-82.55449,33.50532],[-82.47706,33.51432],[-82.34066,33.49986],[-82.20029,33.48332]],[[-97.32059,32.66723],[-97.30979,32.66954],[-97.30286,32.66954],[-97.28362,32.66173],[-97.24879,32.6615],[-97.24579,32.66202],[-97.24348,32.66337],[-97.24153,32.66544],[-97.24067,32.66841]],[[-93.84393,32.45684],[-93.82031,32.46421],[-93.81145,32.46811],[-93.78387,32.47649],[-93.77547,32.48289],[-93.77082,32.49188],[-93.76041,32.49649]],[[-97.06253,32.67726],[-97.03871,32.67605],[-97.0118,32.67594],[-96.97206,32.67058],[-96.95044,32.67084],[-96.92685,32.6698],[-96.91796,32.66702],[-96.89835,32.66307],[-96.85973,32.64638],[-96.83593,32.6424],[-96.82329,32.64228]],[[-97.56719,32.72068],[-97.54907,32.70252],[-97.5377,32.69516],[-97.49908,32.69244],[-97.47876,32.69588],[-97.46898,32.69342]],[[-84.3894,33.74566],[-84.38645,33.74346],[-84.37707,33.74328],[-84.35656,33.74364],[-84.34917,33.74526],[-84.335,33.74493],[-84.33286,33.74408],[-84.32362,33.73484],[-84.32287,33.73067],[-84.32406,33.72606],[-84.32331,33.72273],[-84.30968,33.71554],[-84.29875,33.71511],[-84.29241,33.71275],[-84.2874,33.71224],[-84.27912,33.71243],[-84.25859,33.71629],[-84.24238,33.71457]],[[-86.82665,33.52161],[-86.82467,33.52191],[-86.81701,33.51979],[-86.80636,33.52505],[-86.80205,33.52996],[-86.78636,33.54389],[-86.78252,33.54665],[-86.77627,33.54958],[-86.77146,33.55041],[-86.7685,33.54969],[-86.7571,33.54403],[-86.75309,33.54435],[-86.74893,33.54753]],[[-99.76146,32.48553],[-99.75307,32.48949],[-99.74827,32.49057],[-99.72436,32.49052],[-99.71777,32.48901],[-99.68828,32.46983],[-99.67025,32.45539],[-99.6485,32.44102],[-99.64543,32.43972],[-99.62536,32.43562],[-99.48981,32.41193],[-99.4199,32.40336],[-99.39662,32.40351],[-99.38911,32.4028],[-99.37126,32.39743],[-99.34864,32.39184],[-99.29112,32.38494],[-99.21564,32.37049],[-99.18676,32.37215],[-99.17244,32.37562],[-99.14525,32.37973],[-99.08886,32.37546],[-98.97444,32.37454],[-98.95929,32.37553],[-98.83483,32.37522]],[[-87.02755,33.34291],[-87.00771,33.35923],[-86.9961,33.37133],[-86.98432,33.39382],[-86.9805,33.39951],[-86.97199,33.40996],[-86.96503,33.41469],[-86.96002,33.4225],[-86.95499,33.42688],[-86.95393,33.42929],[-86.95409,33.4317],[-86.9585,33.44321],[-86.95737,33.44758],[-86.95052,33.4569],[-86.93868,33.46553],[-86.93025,33.47368],[-86.92172,33.48011],[-86.9185,33.48514],[-86.91778,33.49137],[-86.91442,33.49549],[-86.89573,33.5001],[-86.89049,33.50398],[-86.86654,33.51699],[-86.85169,33.52086],[-86.83339,33.52031],[-86.82665,33.52161]],[[-82.20029,33.48332],[-82.14931,33.47892],[-82.08406,33.49342]],[[-102.40606,31.81398],[-102.40065,31.81437],[-102.37698,31.81965],[-102.35791,31.82753],[-102.34333,31.83106],[-102.30567,31.86433],[-102.11871,31.96143],[-102.05467,31.97685],[-102.04006,31.98168],[-101.9946,32.02134],[-101.98192,32.04174],[-101.9762,32.04838],[-101.96075,32.05447],[-101.87856,32.09679],[-101.83362,32.11322],[-101.82709,32.11822],[-101.80879,32.13772],[-101.79339,32.14115],[-101.78852,32.14154],[-101.76322,32.14019],[-101.75945,32.14074],[-101.64476,32.1822],[-101.64038,32.18492],[-101.62936,32.19413],[-101.60785,32.19977],[-101.59582,32.21091],[-101.57354,32.2217],[-101.52766,32.2328],[-101.52413,32.23558],[-101.50977,32.25639],[-101.50771,32.25833],[-101.50439,32.26042],[-101.49054,32.26374]],[[-99.77645,32.48084],[-99.76749,32.48265],[-99.76146,32.48553]],[[-99.77645,32.48084],[-99.77068,32.48344],[-99.76146,32.48553]],[[-90.20729,32.27484],[-90.20292,32.27589],[-90.18549,32.27735],[-90.17409,32.27574]],[[-90.17409,32.27574],[-90.15528,32.27205],[-90.14673,32.26672],[-90.14017,32.26569],[-90.10218,32.26675],[-90.02168,32.28024],[-90.01305,32.28008],[-90.00353,32.27818],[-90.00008,32.27931],[-89.97079,32.27795],[-89.95609,32.27915],[-89.95219,32.27825],[-89.94038,32.27224],[-89.93708,32.27205],[-89.92378,32.27705],[-89.90298,32.28314],[-89.89737,32.28294],[-89.88208,32.27975],[-89.87508,32.28065],[-89.84728,32.28654],[-89.82847,32.29265],[-89.81557,32.29775],[-89.79897,32.29664],[-89.75797,32.28995],[-89.73327,32.29525],[-89.71128,32.30294],[-89.69637,32.30454],[-89.68608,32.30834],[-89.63997,32.31315],[-89.62356,32.31354],[-89.60576,32.31875],[-89.58516,32.32305],[-89.55407,32.33675],[-89.53196,32.34125],[-89.4784,32.33564],[-89.46464,32.33023],[-89.43216,32.32395],[-89.39067,32.32804],[-89.36208,32.32415],[-89.32756,32.32344],[-89.30156,32.32565],[-89.28396,32.34035],[-89.28126,32.34164],[-89.27806,32.34185],[-89.26227,32.34015],[-89.16417,32.33794],[-89.14466,32.34095],[-89.12906,32.33935],[-89.06146,32.34774],[-89.03636,32.34344],[-88.99795,32.34244],[-88.97796,32.34264],[-88.95865,32.34385],[-88.94075,32.34205],[-88.92585,32.34225],[-88.84085,32.34905],[-88.82665,32.35385],[-88.82197,32.35471],[-88.81708,32.35439],[-88.80863,32.35196],[-88.79415,32.34244],[-88.77064,32.34295]],[[-101.49054,32.26374],[-101.47317,32.26718],[-101.46903,32.26731],[-101.45525,32.26248],[-101.44814,32.26139],[-101.42463,32.26589],[-101.38547,32.26906],[-101.35101,32.28227],[-101.29744,32.29473],[-101.22395,32.3076],[-101.21722,32.31161],[-101.21011,32.31905],[-101.20142,32.32495],[-101.18554,32.3259],[-101.14818,32.33496],[-101.06459,32.3426],[-101.01461,32.35342],[-101.00801,32.35573],[-101.00224,32.35908],[-100.95993,32.38614],[-100.9236,32.39269],[-100.90702,32.39296],[-100.87652,32.40876],[-100.85819,32.41252],[-100.85285,32.4125],[-100.8245,32.39881],[-100.8184,32.39732],[-100.71702,32.41543],[-100.70173,32.4127],[-100.68979,32.40723],[-100.68274,32.40683],[-100.51602,32.43828],[-100.50606,32.44626],[-100.46598,32.45374],[-100.44558,32.44991],[-100.41337,32.44756],[-100.39843,32.45007],[-100.39354,32.45124],[-100.39092,32.45304],[-100.38098,32.4668],[-100.3646,32.48238],[-100.35703,32.48471],[-100.30597,32.49398],[-100.26804,32.49625],[-100.24092,32.48984],[-100.22229,32.4899],[-100.19974,32.48493],[-100.146,32.4948],[-100.12659,32.49574],[-100.12116,32.49425],[-100.1142,32.4893],[-100.10783,32.48598],[-100.0414,32.47464],[-99.9888,32.4676],[-99.9875,32.46816],[-99.9268,32.45931],[-99.88798,32.45835]],[[-98.83483,32.37522],[-98.8024,32.38551],[-98.80066,32.38677],[-98.79191,32.39866],[-98.78551,32.40341],[-98.76175,32.41355],[-98.74212,32.41553],[-98.72046,32.42893],[-98.70199,32.43722],[-98.67686,32.44814],[-98.64309,32.45883],[-98.62753,32.47304],[-98.62415,32.47528],[-98.60512,32.47991],[-98.54999,32.48994],[-98.54598,32.49227],[-98.54123,32.49669],[-98.53714,32.49831],[-98.50171,32.49978],[-98.47055,32.50436],[-98.452,32.50555],[-98.43585,32.50834],[-98.41142,32.50534],[-98.38323,32.51168],[-98.37233,32.51338],[-98.34376,32.52188],[-98.3079,32.53829],[-98.25171,32.5579],[-98.22943,32.56831],[-98.21867,32.56974],[-98.20346,32.56833],[-98.19525,32.56859],[-98.16934,32.57355],[-98.15145,32.58189],[-98.13217,32.59417],[-98.11009,32.60988],[-98.07569,32.62818],[-98.04093,32.65969],[-98.00757,32.68208],[-97.9982,32.68747],[-97.91633,32.71639],[-97.90051,32.71993],[-97.88457,32.72646],[-97.86591,32.72796],[-97.82713,32.72828],[-97.79971,32.727],[-97.77635,32.73225],[-97.74338,32.74419],[-97.70553,32.75435],[-97.69926,32.75498],[-97.68457,32.75177],[-97.65647,32.74118],[-97.6253,32.73233],[-97.59986,32.72892],[-97.56719,32.72068]],[[-90.24962,32.28963],[-90.23037,32.2884],[-90.21619,32.28605],[-90.21479,32.28535],[-90.21079,32.27805],[-90.20729,32.27484]],[[-104.05236,31.09008],[-104.05035,31.09258],[-104.04354,31.10674],[-104.02561,31.13022],[-104.02341,31.13201],[-103.99591,31.1449],[-103.99053,31.14822],[-103.90154,31.22436],[-103.89055,31.23079],[-103.87733,31.24109],[-103.86389,31.25391],[-103.85803,31.26473],[-103.85468,31.26859],[-103.84039,31.27907],[-103.79829,31.30694],[-103.79301,31.30926],[-103.78262,31.31602],[-103.76086,31.32794],[-103.74206,31.33965],[-103.70543,31.35459],[-103.55557,31.40634],[-103.55041,31.40611],[-103.52149,31.39941],[-103.49755,31.3959],[-103.46739,31.4071],[-103.43449,31.4091],[-103.39857,31.41957],[-103.39515,31.42147],[-103.34873,31.46493],[-103.33237,31.47377],[-103.3001,31.48287],[-103.14019,31.52672],[-103.07192,31.53819],[-103.00042,31.56009],[-102.94331,31.57553],[-102.93629,31.57556],[-102.91154,31.57285],[-102.90336,31.57263],[-102.89572,31.57386],[-102.87771,31.57884],[-102.87343,31.58076],[-102.86929,31.58399],[-102.84475,31.6067],[-102.84243,31.608],[-102.79999,31.61991],[-102.60907,31.731],[-102.57817,31.74186],[-102.54759,31.7588],[-102.51343,31.76889],[-102.43233,31.81089],[-102.42575,31.81681],[-102.42206,31.81733],[-102.40606,31.81398]],[[-82.08406,33.49342],[-82.04751,33.50814],[-82.03355,33.52045],[-82.02228,33.52574],[-82.00383,33.53619],[-81.98795,33.54132],[-81.96339,33.54701],[-81.95418,33.55019],[-81.93711,33.56507]],[[-88.39189,32.45324],[-88.37955,32.45951],[-88.3472,32.48613],[-88.33887,32.49479],[-88.32605,32.50614],[-88.29379,32.52605],[-88.25195,32.56842],[-88.23367,32.58192],[-88.23056,32.58499],[-88.21962,32.6033],[-88.21072,32.62174],[-88.20027,32.63963],[-88.18833,32.65435],[-88.17242,32.67077],[-88.16055,32.68442],[-88.13472,32.70862],[-88.0807,32.75218],[-88.05036,32.78034],[-88.03306,32.7952],[-88.01557,32.80775],[-87.97941,32.82912],[-87.95599,32.84409],[-87.93334,32.86289],[-87.91465,32.87511],[-87.91143,32.87833],[-87.89758,32.89722],[-87.89125,32.90236],[-87.88038,32.90699],[-87.87502,32.91077],[-87.84845,32.94318],[-87.84075,32.95063],[-87.83317,32.95612],[-87.81475,32.96535],[-87.80854,32.96955],[-87.80112,32.97825],[-87.7973,32.98157],[-87.7793,32.99306],[-87.75883,33.00999],[-87.72737,33.04449],[-87.70542,33.05794],[-87.69857,33.06309],[-87.68093,33.08391],[-87.65829,33.10811],[-87.64799,33.12408],[-87.63191,33.13749],[-87.61948,33.14535],[-87.60177,33.15181],[-87.57981,33.15828],[-87.55273,33.17013]],[[-93.62833,32.53996],[-93.61918,32.54164],[-93.53312,32.54187],[-93.52891,32.54242],[-93.52038,32.54563],[-93.48451,32.5724],[-93.47909,32.57542],[-93.47566,32.57643],[-93.44766,32.57742],[-93.3506,32.58676],[-93.32496,32.59346],[-93.31528,32.59427],[-93.30841,32.59335],[-93.29235,32.58897],[-93.27121,32.58529],[-93.19287,32.56843],[-93.15165,32.56193],[-93.08693,32.56347],[-93.05217,32.56336],[-93.02241,32.56071],[-92.96604,32.56672],[-92.93108,32.56715],[-92.82951,32.5479],[-92.78122,32.54818],[-92.70105,32.54025],[-92.52005,32.53936],[-92.44246,32.52817],[-92.43271,32.52513],[-92.41541,32.52186],[-92.36611,32.52165],[-92.33423,32.51987],[-92.32961,32.51902],[-92.3044,32.51098],[-92.29816,32.50992],[-92.21251,32.51001],[-92.20057,32.51094],[-92.17063,32.51112],[-92.16366,32.50961],[-92.14925,32.50093],[-92.1454,32.49942],[-92.12447,32.49565],[-92.1169,32.49608],[-92.10733,32.50081],[-92.09616,32.50055],[-92.078,32.49906],[-92.05721,32.49474],[-91.93464,32.48425]],[[-84.49267,33.76469],[-84.4837,33.7601],[-84.46763,33.75681],[-84.46335,33.75344],[-84.45652,33.75105],[-84.45239,33.75069],[-84.44758,33.7515],[-84.44512,33.75087],[-84.43972,33.74746],[-84.42864,33.74598],[-84.42235,33.74221],[-84.41909,33.74152],[-84.40824,33.74131],[-84.39903,33.74504],[-84.3894,33.74566]],[[-97.24067,32.66841],[-97.21817,32.66841],[-97.19368,32.67502],[-97.18481,32.67621],[-97.14424,32.67445],[-97.11692,32.67841],[-97.06253,32.67726]],[[-96.72671,32.66173],[-96.70125,32.67449],[-96.69583,32.67648],[-96.67524,32.67899],[-96.63688,32.6872],[-96.63329,32.68979],[-96.62763,32.69925]],[[-91.93464,32.48425],[-91.91956,32.48284],[-91.90318,32.48017],[-91.87265,32.47976],[-91.85338,32.4753],[-91.8041,32.46712],[-91.77047,32.45822],[-91.76398,32.45738],[-91.7501,32.4565],[-91.61131,32.45542],[-91.54467,32.44602],[-91.50241,32.44455],[-91.3801,32.42542],[-91.29505,32.41858],[-91.22071,32.40338],[-91.1872,32.38551],[-91.1147,32.36213],[-91.06604,32.33851],[-91.06002,32.33631],[-90.99504,32.32538],[-90.95758,32.32021],[-90.95093,32.31984],[-90.93135,32.32178],[-90.92362,32.32116],[-90.91213,32.31747],[-90.89851,32.31024],[-90.892,32.31094],[-90.88281,32.31644],[-90.8659,32.32425],[-90.86361,32.32634],[-90.85931,32.33285],[-90.83756,32.34656],[-90.80052,32.35173],[-90.7806,32.35353],[-90.75489,32.35378],[-90.741,32.35275],[-90.7161,32.35905],[-90.6878,32.36394],[-90.6785,32.36265],[-90.653,32.35535],[-90.6232,32.35234],[-90.6049,32.34254],[-90.5955,32.34095],[-90.589,32.34215],[-90.5715,32.34794],[-90.5369,32.36095],[-90.4798,32.36234],[-90.41729,32.35725],[-90.38699,32.35005],[-90.36447,32.34608],[-90.34508,32.3392],[-90.32999,32.32913],[-90.26499,32.29185],[-90.26179,32.29065],[-90.24962,32.28963]],[[-97.46898,32.69342],[-97.46295,32.68685],[-97.45479,32.68387],[-97.39908,32.68307],[-97.37678,32.67318],[-97.33894,32.6643],[-97.33465,32.66413],[-97.32059,32.66723]],[[-93.76041,32.49649],[-93.75358,32.49949],[-93.74824,32.50296],[-93.7436,32.50944],[-93.73573,32.51375],[-93.71527,32.51325],[-93.71231,32.51405],[-93.70535,32.52346],[-93.70283,32.52504],[-93.67912,32.52752],[-93.62833,32.53996]],[[-86.74893,33.54753],[-86.74267,33.54568],[-86.72054,33.53427],[-86.70748,33.53036],[-86.70106,33.53192],[-86.68477,33.54149],[-86.67466,33.54402],[-86.66392,33.54573],[-86.64207,33.54482]],[[-99.88798,32.45835],[-99.86933,32.45993],[-99.84853,32.45925],[-99.84382,32.45988],[-99.81367,32.46802],[-99.77645,32.48084]],[[-94.91895,32.43276],[-94.86568,32.43259],[-94.82968,32.43527],[-94.82607,32.43459],[-94.79952,32.43537],[-94.77185,32.43205],[-94.76421,32.43237],[-94.74851,32.4363],[-94.68829,32.45704],[-94.59627,32.47017],[-94.52322,32.48429],[-94.2316,32.49636],[-94.19102,32.49246],[-94.16961,32.49354],[-94.15993,32.49322],[-94.08376,32.47831],[-94.06065,32.46998],[-94.02416,32.45244],[-93.99556,32.45111],[-93.97821,32.44656],[-93.9436,32.44357],[-93.93085,32.44423],[-93.86117,32.45133],[-93.84393,32.45684]],[[-86.64207,33.54482],[-86.63724,33.5453],[-86.62807,33.54837],[-86.61449,33.54407],[-86.60538,33.54298],[-86.59642,33.54375],[-86.58469,33.54669],[-86.56322,33.56031],[-86.55805,33.56107],[-86.55023,33.56088],[-86.49996,33.56977],[-86.47782,33.57786],[-86.4568,33.57885],[-86.44433,33.58216],[-86.42607,33.59107],[-86.41325,33.5938],[-86.39704,33.59574],[-86.37759,33.59647],[-86.36599,33.5944],[-86.35078,33.59478],[-86.33551,33.59921],[-86.31119,33.60146],[-86.28196,33.60639],[-86.26654,33.60664],[-86.248,33.60845],[-86.23798,33.6072],[-86.2098,33.59751],[-86.1987,33.59528],[-86.16098,33.59154],[-86.13154,33.59156],[-86.11931,33.59075],[-86.09091,33.58778],[-86.075,33.58483],[-86.04448,33.58553],[-86.00493,33.5775],[-85.99155,33.57579],[-85.96507,33.58189],[-85.95228,33.5811],[-85.9117,33.58487],[-85.90076,33.58543],[-85.8801,33.58503],[-85.87496,33.58627],[-85.85579,33.59506],[-85.84369,33.60274],[-85.83913,33.6048],[-85.81342,33.60559],[-85.79249,33.61056],[-85.78391,33.6118],[-85.76412,33.61101],[-85.75648,33.61153],[-85.73469,33.61665],[-85.71111,33.61834],[-85.70404,33.618],[-85.68278,33.61293],[-85.67676,33.61233],[-85.66065,33.61779],[-85.63369,33.61953],[-85.61728,33.61857],[-85.60525,33.62184],[-85.58258,33.61973],[-85.52687,33.63844],[-85.49575,33.64747],[-85.48895,33.64789],[-85.45074,33.64457],[-85.43692,33.64455],[-85.42742,33.64749],[-85.40639,33.65696],[-85.34814,33.67482],[-85.32329,33.67855],[-85.31276,33.6792],[-85.27717,33.68424],[-85.26153,33.68517],[-85.2458,33.68833],[-85.22546,33.68865],[-85.21294,33.69005],[-85.19941,33.68993],[-85.17989,33.68843],[-85.1609,33.68569],[-85.1512,33.68517]]]},"properties":{"region":"crossTimbers","name":"I20"}},{"type":"Feature","id":636,"geometry":{"type":"MultiLineString","coordinates":[[[-85.1512,33.68517],[-85.12495,33.68547],[-85.10147,33.69064],[-85.09305,33.69403],[-85.06314,33.70114],[-85.03585,33.71524],[-85.0159,33.71794],[-84.97064,33.71676],[-84.9464,33.72138],[-84.91992,33.72263],[-84.90642,33.72524],[-84.87846,33.72134],[-84.85753,33.72149],[-84.82262,33.71781],[-84.78022,33.72222],[-84.76178,33.72799],[-84.74006,33.73179],[-84.73306,33.73439],[-84.72914,33.73719],[-84.71966,33.74713],[-84.71139,33.75271],[-84.70103,33.75453],[-84.66065,33.76664],[-84.61238,33.77674],[-84.6057,33.77701],[-84.55623,33.77353],[-84.54538,33.77174],[-84.52199,33.76514],[-84.49717,33.76616],[-84.49267,33.76469]],[[-87.55273,33.17013],[-87.54716,33.17128],[-87.53182,33.17039],[-87.50143,33.17622],[-87.48069,33.17505],[-87.46353,33.17253],[-87.44734,33.17295],[-87.42073,33.17142],[-87.39865,33.17582],[-87.37914,33.17789],[-87.36366,33.18275],[-87.34236,33.18375],[-87.3204,33.19052],[-87.31504,33.19053],[-87.29739,33.18826],[-87.28205,33.1878],[-87.26986,33.18913],[-87.2439,33.19482],[-87.23752,33.1974],[-87.22218,33.20877],[-87.21942,33.21008],[-87.19904,33.2133],[-87.19524,33.2146],[-87.17941,33.22314],[-87.15663,33.23775],[-87.14481,33.24632],[-87.12693,33.25209],[-87.11956,33.25679],[-87.11395,33.26176],[-87.10582,33.27178],[-87.08912,33.28441],[-87.08022,33.29006],[-87.0698,33.30243],[-87.05704,33.31396],[-87.0496,33.32282],[-87.02755,33.34291]],[[-96.62763,32.69925],[-96.62395,32.70115],[-96.62022,32.70194],[-96.58294,32.70494],[-96.55076,32.70251],[-96.53212,32.70023],[-96.47779,32.69803],[-96.3725,32.69527],[-96.36337,32.69713],[-96.3318,32.71477],[-96.30988,32.71638],[-96.27198,32.70013],[-96.05483,32.64522],[-96.01014,32.62835],[-95.95719,32.61043],[-95.93392,32.60089],[-95.9261,32.59946],[-95.9071,32.59848],[-95.90156,32.59707],[-95.80482,32.55835],[-95.7793,32.5507],[-95.72401,32.53071],[-95.68845,32.51514],[-95.63746,32.50558],[-95.62295,32.50116],[-95.58791,32.49927],[-95.5825,32.49833],[-95.56911,32.49563],[-95.52845,32.48427],[-95.49058,32.47988],[-95.45998,32.47038],[-95.43958,32.46901],[-95.41131,32.46844],[-95.34544,32.46851],[-95.30735,32.45727],[-95.27806,32.45228],[-95.19981,32.45248],[-95.17785,32.44756],[-95.16152,32.44836],[-95.15437,32.44789],[-95.12901,32.4392],[-95.11953,32.43772],[-95.10208,32.43753],[-95.06906,32.4422],[-95.03244,32.43817],[-94.98142,32.43637],[-94.91895,32.43276]],[[-96.82329,32.64228],[-96.79781,32.64279],[-96.75781,32.65352],[-96.73569,32.65779],[-96.72671,32.66173]],[[-80.92225,34.06801],[-80.91149,34.0716],[-80.90002,34.07736],[-80.85589,34.09515],[-80.81164,34.11088],[-80.80467,34.11409],[-80.75517,34.13943],[-80.71385,34.16832],[-80.69327,34.18672],[-80.67571,34.19395],[-80.65822,34.2025],[-80.63993,34.21493],[-80.61999,34.21953],[-80.56088,34.21357],[-80.54536,34.21669],[-80.51301,34.21541],[-80.50572,34.21463],[-80.48446,34.20999],[-80.45474,34.2083],[-80.44328,34.20885],[-80.42139,34.21342],[-80.41543,34.21347],[-80.38475,34.20508],[-80.35316,34.20201],[-80.33207,34.19575],[-80.29791,34.19605],[-80.2863,34.19543],[-80.23049,34.1874],[-80.21876,34.18652],[-80.16999,34.1895],[-80.14006,34.19401],[-80.09295,34.1983],[-80.07882,34.19854],[-80.03861,34.20814],[-80.0209,34.20501],[-79.98554,34.20574],[-79.96307,34.20469],[-79.92931,34.207],[-79.90381,34.20247],[-79.87374,34.20402],[-79.86871,34.20306],[-79.85195,34.1972],[-79.8439,34.19305]],[[-81.1106,34.03672],[-81.10701,34.03785],[-81.09365,34.0394],[-81.05294,34.05712],[-81.04615,34.063],[-81.04217,34.0654],[-81.03767,34.06629],[-81.02251,34.06607],[-81.00881,34.07265],[-81.0051,34.07333],[-80.97634,34.07275],[-80.96526,34.0739],[-80.94386,34.07359],[-80.92785,34.0683],[-80.92225,34.06801]],[[-81.93711,33.56507],[-81.91531,33.57061],[-81.90014,33.57876],[-81.88944,33.58333],[-81.86813,33.59892],[-81.86432,33.60071],[-81.84361,33.60642],[-81.82224,33.62225],[-81.81664,33.62515],[-81.78866,33.63292],[-81.7498,33.63648],[-81.74448,33.63761],[-81.7235,33.64545],[-81.66878,33.66858],[-81.62294,33.68328],[-81.60285,33.70143],[-81.59935,33.70378],[-81.58028,33.71257],[-81.53033,33.75001],[-81.52608,33.75058],[-81.52477,33.75377],[-81.51734,33.75992],[-81.48254,33.78539],[-81.44988,33.81869],[-81.41915,33.84039],[-81.39259,33.86178],[-81.37595,33.88155],[-81.31903,33.91488],[-81.30916,33.91919],[-81.29098,33.9254],[-81.26753,33.93936],[-81.23724,33.95585],[-81.20047,33.96905],[-81.19721,33.97308],[-81.19133,33.98652],[-81.18779,33.99022],[-81.17852,33.99481],[-81.17479,33.998],[-81.17355,34.00014],[-81.16868,34.0032],[-81.14249,34.01367],[-81.11859,34.034],[-81.1106,34.03672]],[[-88.77064,32.34295],[-88.74264,32.35044],[-88.73094,32.34894],[-88.70654,32.34884],[-88.69805,32.34954],[-88.67915,32.36084],[-88.66624,32.37275],[-88.65174,32.37994],[-88.60134,32.38944],[-88.52344,32.41284],[-88.49464,32.41325],[-88.47604,32.41064],[-88.46443,32.41245],[-88.45974,32.41494],[-88.44864,32.43015],[-88.43853,32.43644],[-88.43033,32.44044],[-88.39189,32.45324]],[[-84.24238,33.71457],[-84.21049,33.71051],[-84.19166,33.7026],[-84.13271,33.70354],[-84.1139,33.70101],[-84.10033,33.70252],[-84.08758,33.7],[-84.06858,33.68924],[-84.05962,33.67712],[-84.05669,33.67512],[-84.02932,33.66489],[-84.0176,33.65724],[-84.00318,33.65295],[-83.97268,33.63217],[-83.94498,33.62777],[-83.92357,33.61641],[-83.91062,33.61425],[-83.89493,33.61287],[-83.87745,33.60732],[-83.8711,33.60815],[-83.86014,33.61405],[-83.85358,33.61522],[-83.83675,33.61529],[-83.82401,33.61233],[-83.79243,33.60998],[-83.74877,33.61254],[-83.70784,33.61101],[-83.65915,33.60277],[-83.61828,33.58912],[-83.57391,33.57738],[-83.56447,33.57593],[-83.53873,33.57788],[-83.53363,33.57719],[-83.48552,33.55548],[-83.44053,33.55559],[-83.40238,33.55373],[-83.37349,33.55524],[-83.33011,33.54413],[-83.29128,33.53297],[-83.24299,33.53664],[-83.21125,33.54559],[-83.13198,33.54974],[-83.07847,33.54401],[-83.05464,33.55018],[-83.03365,33.54689],[-82.99987,33.53811],[-82.9858,33.53195],[-82.95818,33.52795],[-82.9501,33.52799],[-82.9289,33.53062],[-82.89841,33.52882],[-82.87484,33.52325],[-82.82088,33.50031],[-82.81352,33.49805],[-82.78158,33.50083],[-82.76635,33.5037],[-82.75143,33.50427],[-82.71756,33.50315],[-82.66009,33.49022],[-82.6546,33.48989],[-82.62146,33.49504],[-82.59939,33.49706],[-82.56597,33.50498],[-82.55449,33.50532],[-82.47706,33.51432],[-82.34066,33.49986],[-82.20029,33.48332]],[[-97.32059,32.66723],[-97.30979,32.66954],[-97.30286,32.66954],[-97.28362,32.66173],[-97.24879,32.6615],[-97.24579,32.66202],[-97.24348,32.66337],[-97.24153,32.66544],[-97.24067,32.66841]],[[-93.84393,32.45684],[-93.82031,32.46421],[-93.81145,32.46811],[-93.78387,32.47649],[-93.77547,32.48289],[-93.77082,32.49188],[-93.76041,32.49649]],[[-97.06253,32.67726],[-97.03871,32.67605],[-97.0118,32.67594],[-96.97206,32.67058],[-96.95044,32.67084],[-96.92685,32.6698],[-96.91796,32.66702],[-96.89835,32.66307],[-96.85973,32.64638],[-96.83593,32.6424],[-96.82329,32.64228]],[[-97.56719,32.72068],[-97.54907,32.70252],[-97.5377,32.69516],[-97.49908,32.69244],[-97.47876,32.69588],[-97.46898,32.69342]],[[-84.3894,33.74566],[-84.38645,33.74346],[-84.37707,33.74328],[-84.35656,33.74364],[-84.34917,33.74526],[-84.335,33.74493],[-84.33286,33.74408],[-84.32362,33.73484],[-84.32287,33.73067],[-84.32406,33.72606],[-84.32331,33.72273],[-84.30968,33.71554],[-84.29875,33.71511],[-84.29241,33.71275],[-84.2874,33.71224],[-84.27912,33.71243],[-84.25859,33.71629],[-84.24238,33.71457]],[[-86.82665,33.52161],[-86.82467,33.52191],[-86.81701,33.51979],[-86.80636,33.52505],[-86.80205,33.52996],[-86.78636,33.54389],[-86.78252,33.54665],[-86.77627,33.54958],[-86.77146,33.55041],[-86.7685,33.54969],[-86.7571,33.54403],[-86.75309,33.54435],[-86.74893,33.54753]],[[-99.76146,32.48553],[-99.75307,32.48949],[-99.74827,32.49057],[-99.72436,32.49052],[-99.71777,32.48901],[-99.68828,32.46983],[-99.67025,32.45539],[-99.6485,32.44102],[-99.64543,32.43972],[-99.62536,32.43562],[-99.48981,32.41193],[-99.4199,32.40336],[-99.39662,32.40351],[-99.38911,32.4028],[-99.37126,32.39743],[-99.34864,32.39184],[-99.29112,32.38494],[-99.21564,32.37049],[-99.18676,32.37215],[-99.17244,32.37562],[-99.14525,32.37973],[-99.08886,32.37546],[-98.97444,32.37454],[-98.95929,32.37553],[-98.83483,32.37522]],[[-87.02755,33.34291],[-87.00771,33.35923],[-86.9961,33.37133],[-86.98432,33.39382],[-86.9805,33.39951],[-86.97199,33.40996],[-86.96503,33.41469],[-86.96002,33.4225],[-86.95499,33.42688],[-86.95393,33.42929],[-86.95409,33.4317],[-86.9585,33.44321],[-86.95737,33.44758],[-86.95052,33.4569],[-86.93868,33.46553],[-86.93025,33.47368],[-86.92172,33.48011],[-86.9185,33.48514],[-86.91778,33.49137],[-86.91442,33.49549],[-86.89573,33.5001],[-86.89049,33.50398],[-86.86654,33.51699],[-86.85169,33.52086],[-86.83339,33.52031],[-86.82665,33.52161]],[[-82.20029,33.48332],[-82.14931,33.47892],[-82.08406,33.49342]],[[-102.40606,31.81398],[-102.40065,31.81437],[-102.37698,31.81965],[-102.35791,31.82753],[-102.34333,31.83106],[-102.30567,31.86433],[-102.11871,31.96143],[-102.05467,31.97685],[-102.04006,31.98168],[-101.9946,32.02134],[-101.98192,32.04174],[-101.9762,32.04838],[-101.96075,32.05447],[-101.87856,32.09679],[-101.83362,32.11322],[-101.82709,32.11822],[-101.80879,32.13772],[-101.79339,32.14115],[-101.78852,32.14154],[-101.76322,32.14019],[-101.75945,32.14074],[-101.64476,32.1822],[-101.64038,32.18492],[-101.62936,32.19413],[-101.60785,32.19977],[-101.59582,32.21091],[-101.57354,32.2217],[-101.52766,32.2328],[-101.52413,32.23558],[-101.50977,32.25639],[-101.50771,32.25833],[-101.50439,32.26042],[-101.49054,32.26374]],[[-99.77645,32.48084],[-99.76749,32.48265],[-99.76146,32.48553]],[[-99.77645,32.48084],[-99.77068,32.48344],[-99.76146,32.48553]],[[-90.20729,32.27484],[-90.20292,32.27589],[-90.18549,32.27735],[-90.17409,32.27574]],[[-90.17409,32.27574],[-90.15528,32.27205],[-90.14673,32.26672],[-90.14017,32.26569],[-90.10218,32.26675],[-90.02168,32.28024],[-90.01305,32.28008],[-90.00353,32.27818],[-90.00008,32.27931],[-89.97079,32.27795],[-89.95609,32.27915],[-89.95219,32.27825],[-89.94038,32.27224],[-89.93708,32.27205],[-89.92378,32.27705],[-89.90298,32.28314],[-89.89737,32.28294],[-89.88208,32.27975],[-89.87508,32.28065],[-89.84728,32.28654],[-89.82847,32.29265],[-89.81557,32.29775],[-89.79897,32.29664],[-89.75797,32.28995],[-89.73327,32.29525],[-89.71128,32.30294],[-89.69637,32.30454],[-89.68608,32.30834],[-89.63997,32.31315],[-89.62356,32.31354],[-89.60576,32.31875],[-89.58516,32.32305],[-89.55407,32.33675],[-89.53196,32.34125],[-89.4784,32.33564],[-89.46464,32.33023],[-89.43216,32.32395],[-89.39067,32.32804],[-89.36208,32.32415],[-89.32756,32.32344],[-89.30156,32.32565],[-89.28396,32.34035],[-89.28126,32.34164],[-89.27806,32.34185],[-89.26227,32.34015],[-89.16417,32.33794],[-89.14466,32.34095],[-89.12906,32.33935],[-89.06146,32.34774],[-89.03636,32.34344],[-88.99795,32.34244],[-88.97796,32.34264],[-88.95865,32.34385],[-88.94075,32.34205],[-88.92585,32.34225],[-88.84085,32.34905],[-88.82665,32.35385],[-88.82197,32.35471],[-88.81708,32.35439],[-88.80863,32.35196],[-88.79415,32.34244],[-88.77064,32.34295]],[[-101.49054,32.26374],[-101.47317,32.26718],[-101.46903,32.26731],[-101.45525,32.26248],[-101.44814,32.26139],[-101.42463,32.26589],[-101.38547,32.26906],[-101.35101,32.28227],[-101.29744,32.29473],[-101.22395,32.3076],[-101.21722,32.31161],[-101.21011,32.31905],[-101.20142,32.32495],[-101.18554,32.3259],[-101.14818,32.33496],[-101.06459,32.3426],[-101.01461,32.35342],[-101.00801,32.35573],[-101.00224,32.35908],[-100.95993,32.38614],[-100.9236,32.39269],[-100.90702,32.39296],[-100.87652,32.40876],[-100.85819,32.41252],[-100.85285,32.4125],[-100.8245,32.39881],[-100.8184,32.39732],[-100.71702,32.41543],[-100.70173,32.4127],[-100.68979,32.40723],[-100.68274,32.40683],[-100.51602,32.43828],[-100.50606,32.44626],[-100.46598,32.45374],[-100.44558,32.44991],[-100.41337,32.44756],[-100.39843,32.45007],[-100.39354,32.45124],[-100.39092,32.45304],[-100.38098,32.4668],[-100.3646,32.48238],[-100.35703,32.48471],[-100.30597,32.49398],[-100.26804,32.49625],[-100.24092,32.48984],[-100.22229,32.4899],[-100.19974,32.48493],[-100.146,32.4948],[-100.12659,32.49574],[-100.12116,32.49425],[-100.1142,32.4893],[-100.10783,32.48598],[-100.0414,32.47464],[-99.9888,32.4676],[-99.9875,32.46816],[-99.9268,32.45931],[-99.88798,32.45835]],[[-98.83483,32.37522],[-98.8024,32.38551],[-98.80066,32.38677],[-98.79191,32.39866],[-98.78551,32.40341],[-98.76175,32.41355],[-98.74212,32.41553],[-98.72046,32.42893],[-98.70199,32.43722],[-98.67686,32.44814],[-98.64309,32.45883],[-98.62753,32.47304],[-98.62415,32.47528],[-98.60512,32.47991],[-98.54999,32.48994],[-98.54598,32.49227],[-98.54123,32.49669],[-98.53714,32.49831],[-98.50171,32.49978],[-98.47055,32.50436],[-98.452,32.50555],[-98.43585,32.50834],[-98.41142,32.50534],[-98.38323,32.51168],[-98.37233,32.51338],[-98.34376,32.52188],[-98.3079,32.53829],[-98.25171,32.5579],[-98.22943,32.56831],[-98.21867,32.56974],[-98.20346,32.56833],[-98.19525,32.56859],[-98.16934,32.57355],[-98.15145,32.58189],[-98.13217,32.59417],[-98.11009,32.60988],[-98.07569,32.62818],[-98.04093,32.65969],[-98.00757,32.68208],[-97.9982,32.68747],[-97.91633,32.71639],[-97.90051,32.71993],[-97.88457,32.72646],[-97.86591,32.72796],[-97.82713,32.72828],[-97.79971,32.727],[-97.77635,32.73225],[-97.74338,32.74419],[-97.70553,32.75435],[-97.69926,32.75498],[-97.68457,32.75177],[-97.65647,32.74118],[-97.6253,32.73233],[-97.59986,32.72892],[-97.56719,32.72068]],[[-90.24962,32.28963],[-90.23037,32.2884],[-90.21619,32.28605],[-90.21479,32.28535],[-90.21079,32.27805],[-90.20729,32.27484]],[[-104.05236,31.09008],[-104.05035,31.09258],[-104.04354,31.10674],[-104.02561,31.13022],[-104.02341,31.13201],[-103.99591,31.1449],[-103.99053,31.14822],[-103.90154,31.22436],[-103.89055,31.23079],[-103.87733,31.24109],[-103.86389,31.25391],[-103.85803,31.26473],[-103.85468,31.26859],[-103.84039,31.27907],[-103.79829,31.30694],[-103.79301,31.30926],[-103.78262,31.31602],[-103.76086,31.32794],[-103.74206,31.33965],[-103.70543,31.35459],[-103.55557,31.40634],[-103.55041,31.40611],[-103.52149,31.39941],[-103.49755,31.3959],[-103.46739,31.4071],[-103.43449,31.4091],[-103.39857,31.41957],[-103.39515,31.42147],[-103.34873,31.46493],[-103.33237,31.47377],[-103.3001,31.48287],[-103.14019,31.52672],[-103.07192,31.53819],[-103.00042,31.56009],[-102.94331,31.57553],[-102.93629,31.57556],[-102.91154,31.57285],[-102.90336,31.57263],[-102.89572,31.57386],[-102.87771,31.57884],[-102.87343,31.58076],[-102.86929,31.58399],[-102.84475,31.6067],[-102.84243,31.608],[-102.79999,31.61991],[-102.60907,31.731],[-102.57817,31.74186],[-102.54759,31.7588],[-102.51343,31.76889],[-102.43233,31.81089],[-102.42575,31.81681],[-102.42206,31.81733],[-102.40606,31.81398]],[[-82.08406,33.49342],[-82.04751,33.50814],[-82.03355,33.52045],[-82.02228,33.52574],[-82.00383,33.53619],[-81.98795,33.54132],[-81.96339,33.54701],[-81.95418,33.55019],[-81.93711,33.56507]],[[-88.39189,32.45324],[-88.37955,32.45951],[-88.3472,32.48613],[-88.33887,32.49479],[-88.32605,32.50614],[-88.29379,32.52605],[-88.25195,32.56842],[-88.23367,32.58192],[-88.23056,32.58499],[-88.21962,32.6033],[-88.21072,32.62174],[-88.20027,32.63963],[-88.18833,32.65435],[-88.17242,32.67077],[-88.16055,32.68442],[-88.13472,32.70862],[-88.0807,32.75218],[-88.05036,32.78034],[-88.03306,32.7952],[-88.01557,32.80775],[-87.97941,32.82912],[-87.95599,32.84409],[-87.93334,32.86289],[-87.91465,32.87511],[-87.91143,32.87833],[-87.89758,32.89722],[-87.89125,32.90236],[-87.88038,32.90699],[-87.87502,32.91077],[-87.84845,32.94318],[-87.84075,32.95063],[-87.83317,32.95612],[-87.81475,32.96535],[-87.80854,32.96955],[-87.80112,32.97825],[-87.7973,32.98157],[-87.7793,32.99306],[-87.75883,33.00999],[-87.72737,33.04449],[-87.70542,33.05794],[-87.69857,33.06309],[-87.68093,33.08391],[-87.65829,33.10811],[-87.64799,33.12408],[-87.63191,33.13749],[-87.61948,33.14535],[-87.60177,33.15181],[-87.57981,33.15828],[-87.55273,33.17013]],[[-93.62833,32.53996],[-93.61918,32.54164],[-93.53312,32.54187],[-93.52891,32.54242],[-93.52038,32.54563],[-93.48451,32.5724],[-93.47909,32.57542],[-93.47566,32.57643],[-93.44766,32.57742],[-93.3506,32.58676],[-93.32496,32.59346],[-93.31528,32.59427],[-93.30841,32.59335],[-93.29235,32.58897],[-93.27121,32.58529],[-93.19287,32.56843],[-93.15165,32.56193],[-93.08693,32.56347],[-93.05217,32.56336],[-93.02241,32.56071],[-92.96604,32.56672],[-92.93108,32.56715],[-92.82951,32.5479],[-92.78122,32.54818],[-92.70105,32.54025],[-92.52005,32.53936],[-92.44246,32.52817],[-92.43271,32.52513],[-92.41541,32.52186],[-92.36611,32.52165],[-92.33423,32.51987],[-92.32961,32.51902],[-92.3044,32.51098],[-92.29816,32.50992],[-92.21251,32.51001],[-92.20057,32.51094],[-92.17063,32.51112],[-92.16366,32.50961],[-92.14925,32.50093],[-92.1454,32.49942],[-92.12447,32.49565],[-92.1169,32.49608],[-92.10733,32.50081],[-92.09616,32.50055],[-92.078,32.49906],[-92.05721,32.49474],[-91.93464,32.48425]],[[-84.49267,33.76469],[-84.4837,33.7601],[-84.46763,33.75681],[-84.46335,33.75344],[-84.45652,33.75105],[-84.45239,33.75069],[-84.44758,33.7515],[-84.44512,33.75087],[-84.43972,33.74746],[-84.42864,33.74598],[-84.42235,33.74221],[-84.41909,33.74152],[-84.40824,33.74131],[-84.39903,33.74504],[-84.3894,33.74566]],[[-97.24067,32.66841],[-97.21817,32.66841],[-97.19368,32.67502],[-97.18481,32.67621],[-97.14424,32.67445],[-97.11692,32.67841],[-97.06253,32.67726]],[[-96.72671,32.66173],[-96.70125,32.67449],[-96.69583,32.67648],[-96.67524,32.67899],[-96.63688,32.6872],[-96.63329,32.68979],[-96.62763,32.69925]],[[-91.93464,32.48425],[-91.91956,32.48284],[-91.90318,32.48017],[-91.87265,32.47976],[-91.85338,32.4753],[-91.8041,32.46712],[-91.77047,32.45822],[-91.76398,32.45738],[-91.7501,32.4565],[-91.61131,32.45542],[-91.54467,32.44602],[-91.50241,32.44455],[-91.3801,32.42542],[-91.29505,32.41858],[-91.22071,32.40338],[-91.1872,32.38551],[-91.1147,32.36213],[-91.06604,32.33851],[-91.06002,32.33631],[-90.99504,32.32538],[-90.95758,32.32021],[-90.95093,32.31984],[-90.93135,32.32178],[-90.92362,32.32116],[-90.91213,32.31747],[-90.89851,32.31024],[-90.892,32.31094],[-90.88281,32.31644],[-90.8659,32.32425],[-90.86361,32.32634],[-90.85931,32.33285],[-90.83756,32.34656],[-90.80052,32.35173],[-90.7806,32.35353],[-90.75489,32.35378],[-90.741,32.35275],[-90.7161,32.35905],[-90.6878,32.36394],[-90.6785,32.36265],[-90.653,32.35535],[-90.6232,32.35234],[-90.6049,32.34254],[-90.5955,32.34095],[-90.589,32.34215],[-90.5715,32.34794],[-90.5369,32.36095],[-90.4798,32.36234],[-90.41729,32.35725],[-90.38699,32.35005],[-90.36447,32.34608],[-90.34508,32.3392],[-90.32999,32.32913],[-90.26499,32.29185],[-90.26179,32.29065],[-90.24962,32.28963]],[[-97.46898,32.69342],[-97.46295,32.68685],[-97.45479,32.68387],[-97.39908,32.68307],[-97.37678,32.67318],[-97.33894,32.6643],[-97.33465,32.66413],[-97.32059,32.66723]],[[-93.76041,32.49649],[-93.75358,32.49949],[-93.74824,32.50296],[-93.7436,32.50944],[-93.73573,32.51375],[-93.71527,32.51325],[-93.71231,32.51405],[-93.70535,32.52346],[-93.70283,32.52504],[-93.67912,32.52752],[-93.62833,32.53996]],[[-86.74893,33.54753],[-86.74267,33.54568],[-86.72054,33.53427],[-86.70748,33.53036],[-86.70106,33.53192],[-86.68477,33.54149],[-86.67466,33.54402],[-86.66392,33.54573],[-86.64207,33.54482]],[[-99.88798,32.45835],[-99.86933,32.45993],[-99.84853,32.45925],[-99.84382,32.45988],[-99.81367,32.46802],[-99.77645,32.48084]],[[-94.91895,32.43276],[-94.86568,32.43259],[-94.82968,32.43527],[-94.82607,32.43459],[-94.79952,32.43537],[-94.77185,32.43205],[-94.76421,32.43237],[-94.74851,32.4363],[-94.68829,32.45704],[-94.59627,32.47017],[-94.52322,32.48429],[-94.2316,32.49636],[-94.19102,32.49246],[-94.16961,32.49354],[-94.15993,32.49322],[-94.08376,32.47831],[-94.06065,32.46998],[-94.02416,32.45244],[-93.99556,32.45111],[-93.97821,32.44656],[-93.9436,32.44357],[-93.93085,32.44423],[-93.86117,32.45133],[-93.84393,32.45684]],[[-86.64207,33.54482],[-86.63724,33.5453],[-86.62807,33.54837],[-86.61449,33.54407],[-86.60538,33.54298],[-86.59642,33.54375],[-86.58469,33.54669],[-86.56322,33.56031],[-86.55805,33.56107],[-86.55023,33.56088],[-86.49996,33.56977],[-86.47782,33.57786],[-86.4568,33.57885],[-86.44433,33.58216],[-86.42607,33.59107],[-86.41325,33.5938],[-86.39704,33.59574],[-86.37759,33.59647],[-86.36599,33.5944],[-86.35078,33.59478],[-86.33551,33.59921],[-86.31119,33.60146],[-86.28196,33.60639],[-86.26654,33.60664],[-86.248,33.60845],[-86.23798,33.6072],[-86.2098,33.59751],[-86.1987,33.59528],[-86.16098,33.59154],[-86.13154,33.59156],[-86.11931,33.59075],[-86.09091,33.58778],[-86.075,33.58483],[-86.04448,33.58553],[-86.00493,33.5775],[-85.99155,33.57579],[-85.96507,33.58189],[-85.95228,33.5811],[-85.9117,33.58487],[-85.90076,33.58543],[-85.8801,33.58503],[-85.87496,33.58627],[-85.85579,33.59506],[-85.84369,33.60274],[-85.83913,33.6048],[-85.81342,33.60559],[-85.79249,33.61056],[-85.78391,33.6118],[-85.76412,33.61101],[-85.75648,33.61153],[-85.73469,33.61665],[-85.71111,33.61834],[-85.70404,33.618],[-85.68278,33.61293],[-85.67676,33.61233],[-85.66065,33.61779],[-85.63369,33.61953],[-85.61728,33.61857],[-85.60525,33.62184],[-85.58258,33.61973],[-85.52687,33.63844],[-85.49575,33.64747],[-85.48895,33.64789],[-85.45074,33.64457],[-85.43692,33.64455],[-85.42742,33.64749],[-85.40639,33.65696],[-85.34814,33.67482],[-85.32329,33.67855],[-85.31276,33.6792],[-85.27717,33.68424],[-85.26153,33.68517],[-85.2458,33.68833],[-85.22546,33.68865],[-85.21294,33.69005],[-85.19941,33.68993],[-85.17989,33.68843],[-85.1609,33.68569],[-85.1512,33.68517]]]},"properties":{"region":"permian","name":"I20"}},{"type":"Feature","id":217,"geometry":{"type":"MultiLineString","coordinates":[[[-97.32698,36.40019],[-97.28267,36.3989],[-97.2747,36.39954],[-97.26022,36.4026],[-97.25532,36.40258],[-97.24775,36.40158],[-97.22244,36.39545],[-97.19418,36.39279],[-97.18072,36.39211],[-97.1053,36.39193],[-97.07745,36.38442],[-97.05852,36.38298],[-97.04919,36.38025],[-97.04434,36.37759],[-97.03758,36.37074],[-97.03552,36.36712],[-97.02864,36.34815],[-97.02214,36.33908],[-97.00034,36.32206],[-96.99486,36.31627],[-96.99212,36.31141],[-96.97268,36.26001],[-96.96966,36.2544],[-96.96676,36.25116],[-96.96061,36.24599],[-96.9529,36.24248],[-96.9259,36.23757],[-96.92064,36.23556],[-96.90671,36.22797],[-96.89718,36.22532],[-96.80318,36.22487],[-96.79681,36.22565],[-96.7915,36.22495],[-96.74942,36.22404],[-96.70764,36.2249],[-96.59559,36.22523],[-96.56044,36.21982],[-96.43022,36.22001],[-96.42192,36.21877],[-96.40472,36.21877],[-96.39247,36.21787]],[[-89.39663,36.0689],[-89.39449,36.05752]]]},"properties":{"region":"stillwater","name":"U412"}},{"type":"Feature","id":680,"geometry":{"type":"MultiLineString","coordinates":[[[-98.3042,29.58534],[-98.30992,29.58174],[-98.32268,29.57668],[-98.3332,29.56784]],[[-99.34983,28.05292],[-99.35016,28.04264],[-99.3512,28.03881],[-99.35622,28.03254],[-99.35857,28.02808],[-99.38427,27.9445],[-99.399,27.8894],[-99.40132,27.86186],[-99.42875,27.76894],[-99.42984,27.76697],[-99.43576,27.76398],[-99.43795,27.76146],[-99.43885,27.75522],[-99.44322,27.74183],[-99.44931,27.71638],[-99.45802,27.69312],[-99.46236,27.68574],[-99.46646,27.68061],[-99.47285,27.66431],[-99.48622,27.64766],[-99.4897,27.62555],[-99.49395,27.60711],[-99.49623,27.60132],[-99.49472,27.5934],[-99.49742,27.58883],[-99.50261,27.57273],[-99.50383,27.55587],[-99.50379,27.54872],[-99.50285,27.54294],[-99.5031,27.50879]],[[-97.48926,35.46192],[-97.47298,35.46282],[-97.4694,35.46478],[-97.46799,35.46812]],[[-94.49142,39.20654],[-94.48349,39.21041],[-94.47426,39.21753],[-94.45618,39.24508]],[[-97.1329,34.44823],[-97.12939,34.44401],[-97.12853,34.43862],[-97.13301,34.42943],[-97.13743,34.4162],[-97.14102,34.40213],[-97.14236,34.38385],[-97.14637,34.37051],[-97.14883,34.35706],[-97.1478,34.34532],[-97.15481,34.32715],[-97.15612,34.31822],[-97.15971,34.30582],[-97.15956,34.28639],[-97.16528,34.25741],[-97.16483,34.25195],[-97.1623,34.24226],[-97.16162,34.23225],[-97.16396,34.21593],[-97.16422,34.19458],[-97.16766,34.18264],[-97.16812,34.17698],[-97.16797,34.16915],[-97.16641,34.1634],[-97.15854,34.15253],[-97.15581,34.14645],[-97.15657,34.12512],[-97.15198,34.10815],[-97.15125,34.08728],[-97.1497,34.07362],[-97.14992,34.06681],[-97.14879,34.05261],[-97.14964,34.03759],[-97.14165,34.00617],[-97.13911,33.99126],[-97.13422,33.97772],[-97.13409,33.95975],[-97.13495,33.94341],[-97.13487,33.93215],[-97.13332,33.91763],[-97.13449,33.89795],[-97.13399,33.84572],[-97.13336,33.84072],[-97.13008,33.82894],[-97.13107,33.82067],[-97.13359,33.81339],[-97.13492,33.8045],[-97.13516,33.75466],[-97.13797,33.7479],[-97.1423,33.74182],[-97.14512,33.73865],[-97.15495,33.73187],[-97.16147,33.7244],[-97.16104,33.71772],[-97.16279,33.70332],[-97.16223,33.6933],[-97.15199,33.67389],[-97.15089,33.66949],[-97.15089,33.66446],[-97.15566,33.65184],[-97.15571,33.64059]],[[-93.32113,43.68381],[-93.32353,43.67171],[-93.32339,43.66836],[-93.31955,43.65895],[-93.32335,43.64658],[-93.32353,43.63905],[-93.32443,43.63493],[-93.33113,43.624],[-93.34517,43.60842],[-93.35613,43.59241],[-93.35736,43.58898],[-93.35888,43.57253],[-93.35914,43.55048],[-93.35502,43.54387],[-93.35425,43.5207],[-93.35486,43.50439],[-93.35113,43.48785],[-93.35101,43.466],[-93.34963,43.44372],[-93.34881,43.34263],[-93.34982,43.29176],[-93.34874,43.24204],[-93.349,43.20289],[-93.34984,43.19751],[-93.35596,43.18696],[-93.35658,43.18442],[-93.35551,43.16263],[-93.35597,43.12652],[-93.3556,43.12392],[-93.34447,43.09579],[-93.34311,43.09053],[-93.34235,43.03832],[-93.34098,43.02453],[-93.3406,43.00922],[-93.34097,42.98784],[-93.34937,42.97062],[-93.35058,42.96582],[-93.35101,42.90856],[-93.34975,42.84816],[-93.34999,42.81853],[-93.35246,42.81287],[-93.37042,42.78897],[-93.38012,42.77419],[-93.39639,42.7464],[-93.4154,42.72865],[-93.44645,42.68788],[-93.4698,42.65248],[-93.48486,42.62678],[-93.50018,42.61312],[-93.55777,42.56504],[-93.56338,42.55984],[-93.56475,42.55756],[-93.56741,42.54971],[-93.56723,42.52548],[-93.56874,42.50001],[-93.56931,42.44878]],[[-98.60831,29.31661],[-98.6254,29.30199],[-98.64226,29.28957],[-98.6468,29.28722],[-98.71518,29.25918],[-98.77447,29.24145],[-98.77972,29.23746],[-98.79418,29.2223],[-98.84518,29.18256],[-98.89072,29.13442],[-98.90412,29.12227],[-98.90656,29.12079],[-98.92288,29.11625],[-98.98271,29.07019],[-99.00078,29.06094],[-99.03015,29.04388],[-99.04924,29.02872],[-99.07488,28.97001],[-99.08213,28.94667],[-99.09432,28.93329],[-99.10582,28.91784],[-99.11115,28.90926],[-99.11485,28.89977],[-99.11687,28.8915],[-99.11691,28.88316],[-99.10781,28.86599],[-99.10713,28.86212],[-99.13983,28.74666],[-99.15406,28.72362],[-99.16148,28.7004],[-99.17601,28.6865],[-99.18101,28.6807],[-99.18326,28.67687],[-99.1842,28.67132],[-99.18373,28.66807],[-99.17828,28.64415],[-99.17935,28.63845],[-99.2328,28.46163],[-99.23625,28.45335],[-99.2388,28.45023],[-99.2471,28.44571],[-99.25063,28.44181],[-99.2515,28.4176],[-99.27109,28.36167],[-99.27316,28.33207],[-99.27564,28.32205],[-99.27117,28.31389],[-99.27127,28.3093],[-99.27774,28.29956],[-99.27973,28.29384],[-99.31051,28.19283],[-99.31456,28.18056],[-99.32482,28.15466],[-99.32553,28.1352],[-99.34893,28.05898],[-99.34983,28.05292]],[[-94.55847,39.1705],[-94.55215,39.17269],[-94.53675,39.17435],[-94.53268,39.17613],[-94.51796,39.18666],[-94.50621,39.20124],[-94.49831,39.20498],[-94.49142,39.20654]],[[-98.50082,29.43071],[-98.49815,29.43372],[-98.48651,29.43995],[-98.48446,29.44039],[-98.4779,29.43895]],[[-98.4779,29.43895],[-98.46036,29.43845],[-98.44293,29.43976],[-98.41698,29.45271],[-98.41359,29.45561]],[[-98.40403,29.47952],[-98.40646,29.4694],[-98.41359,29.45561]],[[-97.39005,31.08957],[-97.40785,31.08378],[-97.43551,31.061],[-97.45353,31.05393],[-97.46641,31.0468],[-97.47254,31.03318],[-97.47825,31.02279],[-97.5015,30.9886],[-97.50923,30.98038],[-97.52804,30.96405],[-97.53462,30.95729],[-97.53865,30.9478],[-97.5414,30.9319],[-97.54578,30.91944],[-97.57747,30.8823],[-97.58939,30.85681]],[[-92.12298,46.76502],[-92.11311,46.77376],[-92.1058,46.77837],[-92.0982,46.78442],[-92.08988,46.79373],[-92.07429,46.80047],[-92.0631,46.80631],[-92.06128,46.80789],[-92.06115,46.80931]],[[-93.24467,44.08852],[-93.24751,44.08086],[-93.2523,44.07129],[-93.24717,44.03589],[-93.24694,44.02888],[-93.24786,44.02265],[-93.25412,44.01028],[-93.25555,43.96553],[-93.27706,43.92624],[-93.27686,43.86639],[-93.27772,43.86275],[-93.28809,43.84321],[-93.28871,43.84083],[-93.2888,43.80965],[-93.29015,43.80694],[-93.30613,43.79325],[-93.30783,43.79105],[-93.30876,43.78908],[-93.3093,43.77332],[-93.31462,43.76263],[-93.31785,43.75384],[-93.32132,43.7315],[-93.31989,43.7176],[-93.31966,43.6942],[-93.32113,43.68381]],[[-97.49282,35.46201],[-97.48926,35.46192]],[[-94.67315,39.03999],[-94.64034,39.04968],[-94.62995,39.05591],[-94.62756,39.06043],[-94.61958,39.0681],[-94.61639,39.07362],[-94.60734,39.07594],[-94.5994,39.07541],[-94.59595,39.07677],[-94.59383,39.07912],[-94.59098,39.09107],[-94.59117,39.09631]],[[-93.28271,44.74029],[-93.28347,44.73446],[-93.28161,44.72083],[-93.28379,44.71341],[-93.28547,44.70286],[-93.29195,44.69093],[-93.29328,44.68657],[-93.29401,44.65782],[-93.29833,44.63013],[-93.29804,44.61877],[-93.29572,44.60839],[-93.29814,44.60053],[-93.29775,44.58765],[-93.29891,44.54993],[-93.30118,44.54124],[-93.30114,44.53574],[-93.30012,44.53194],[-93.2891,44.51397],[-93.28803,44.51107],[-93.28828,44.50818],[-93.29099,44.50062],[-93.29203,44.46966],[-93.29209,44.3858],[-93.29328,44.37686],[-93.29254,44.3696],[-93.2932,44.3288],[-93.29491,44.3239],[-93.30038,44.31968],[-93.30543,44.31734],[-93.30805,44.31473],[-93.30896,44.29545],[-93.30791,44.28313],[-93.29855,44.27474],[-93.28424,44.24934],[-93.27865,44.23537],[-93.27682,44.22519],[-93.27507,44.22015],[-93.25848,44.2029],[-93.25511,44.19822],[-93.25514,44.19131],[-93.25882,44.17326],[-93.25735,44.15949],[-93.25727,44.15105],[-93.25605,44.14705],[-93.24861,44.13775],[-93.24792,44.13596],[-93.24467,44.08852]],[[-96.23725,38.41543],[-96.25418,38.39187],[-96.26652,38.37918],[-96.27206,38.36963],[-96.28607,38.35427],[-96.29621,38.34003],[-96.30683,38.33089],[-96.33933,38.31102],[-96.348,38.30323],[-96.35572,38.29228],[-96.37201,38.27742],[-96.37983,38.26752],[-96.39105,38.25622],[-96.3933,38.2509],[-96.39451,38.24231],[-96.398,38.23629],[-96.40839,38.22983],[-96.42414,38.22603],[-96.42801,38.22422],[-96.43401,38.21788],[-96.43572,38.20873],[-96.44097,38.20325],[-96.44595,38.19557],[-96.46419,38.1784],[-96.473,38.17315],[-96.49328,38.15142],[-96.49641,38.14966],[-96.52357,38.1419],[-96.53057,38.13704],[-96.5401,38.13312],[-96.55667,38.1224],[-96.56581,38.11832],[-96.57244,38.11158],[-96.57558,38.10328],[-96.58467,38.08745],[-96.59414,38.07689],[-96.63731,38.04899],[-96.64515,38.04267],[-96.68305,38.00669],[-96.70726,37.98542],[-96.74831,37.94498],[-96.75595,37.93908],[-96.76499,37.9338],[-96.7777,37.9298],[-96.79981,37.9161],[-96.82676,37.90358],[-96.83121,37.90074],[-96.83454,37.89684],[-96.84498,37.87746],[-96.85681,37.86821],[-96.86135,37.85628],[-96.8627,37.85441],[-96.88357,37.83549],[-96.90558,37.81732],[-96.91597,37.81089],[-96.92395,37.80278],[-96.94297,37.78711],[-96.9538,37.78041],[-96.98893,37.76345],[-96.99967,37.76116],[-97.02501,37.75161],[-97.04821,37.74525],[-97.0669,37.73725],[-97.09431,37.72828],[-97.16408,37.69662],[-97.18604,37.68299]],[[-93.02895,45.21842],[-93.02797,45.23975],[-93.02576,45.24744],[-93.02128,45.25604],[-93.01189,45.26263],[-93.00331,45.27822],[-93.0024,45.30141],[-93.00323,45.32233],[-93.00435,45.33096],[-93.0042,45.33981],[-92.99954,45.34986],[-92.99168,45.3842],[-92.99509,45.3992],[-92.99425,45.40328],[-92.98972,45.41327],[-92.9894,45.45042],[-92.99044,45.45412],[-92.99615,45.46371],[-92.99697,45.48963],[-92.9937,45.5021],[-92.99338,45.51253],[-92.99102,45.52923],[-92.99084,45.56319],[-92.99325,45.58425],[-92.99623,45.59277],[-92.99257,45.61631],[-92.99267,45.67163],[-92.98997,45.68245],[-92.99004,45.68589],[-92.99213,45.69388],[-92.9926,45.70229],[-92.99208,45.74773],[-92.98981,45.76589],[-92.99057,45.77718],[-92.99046,45.80185],[-92.98949,45.80643],[-92.98368,45.81807],[-92.98411,45.82664],[-92.9815,45.83606],[-92.97377,45.85179],[-92.96716,45.89679],[-92.96637,45.93603],[-92.95657,45.97352]],[[-92.95657,45.97352],[-92.95519,45.97869],[-92.95357,45.98148],[-92.94521,45.98751],[-92.94061,45.99363],[-92.93689,46.00038],[-92.92599,46.02342],[-92.92458,46.03711],[-92.9139,46.05347],[-92.88939,46.10147],[-92.88825,46.1047],[-92.88791,46.14352],[-92.88672,46.14932],[-92.87032,46.16787],[-92.85785,46.17765],[-92.84446,46.20255],[-92.83608,46.21653],[-92.82923,46.22564],[-92.82667,46.23353],[-92.82637,46.23689],[-92.82532,46.25301],[-92.82523,46.272],[-92.81969,46.28874],[-92.82028,46.29344],[-92.82457,46.30241],[-92.82761,46.31353],[-92.82781,46.3175],[-92.82689,46.32099],[-92.80897,46.35047],[-92.79331,46.37135],[-92.7832,46.38304],[-92.77327,46.39994],[-92.76207,46.40808],[-92.75963,46.41066],[-92.74629,46.43556],[-92.73916,46.4445],[-92.73264,46.44985],[-92.72117,46.46421],[-92.7148,46.47567],[-92.70731,46.48512],[-92.67496,46.50498],[-92.66667,46.51323],[-92.62986,46.53331],[-92.60739,46.55505],[-92.58855,46.56807],[-92.58565,46.57169],[-92.58544,46.58025],[-92.58327,46.58457],[-92.56789,46.59935],[-92.5478,46.61656],[-92.53339,46.62554],[-92.53159,46.62868],[-92.53108,46.63352],[-92.52936,46.63554],[-92.50471,46.64971],[-92.49084,46.6544],[-92.48317,46.65875],[-92.46566,46.67323],[-92.46236,46.67864],[-92.45806,46.68869],[-92.45615,46.69026],[-92.438,46.69838],[-92.43275,46.69957],[-92.39838,46.69986],[-92.38736,46.69936],[-92.36874,46.69652],[-92.34292,46.69667],[-92.28356,46.70625],[-92.27282,46.71073],[-92.26162,46.71195],[-92.23669,46.72183],[-92.22615,46.72501],[-92.22112,46.72611],[-92.21292,46.72622],[-92.20951,46.72697],[-92.20461,46.72882],[-92.20129,46.73243],[-92.1853,46.7386],[-92.18034,46.73855],[-92.17271,46.73586],[-92.1636,46.73637],[-92.143,46.75111],[-92.13577,46.75418],[-92.12799,46.75955],[-92.12298,46.76502]],[[-97.70802,30.31475],[-97.7088,30.31221],[-97.73043,30.27683],[-97.73702,30.25881],[-97.73506,30.24577],[-97.73547,30.24354],[-97.75597,30.20873],[-97.77151,30.18909],[-97.78735,30.165],[-97.80189,30.12525],[-97.81369,30.09786],[-97.82401,30.07893],[-97.84507,30.03592],[-97.85914,30.01514],[-97.87001,29.99742],[-97.87341,29.98459],[-97.87564,29.96427],[-97.8802,29.94697],[-97.90329,29.90369],[-97.91885,29.88601]],[[-98.39382,29.52429],[-98.39153,29.53067],[-98.38737,29.53524],[-98.36042,29.55027],[-98.3495,29.55434],[-98.3332,29.56784]],[[-98.60831,29.31661],[-98.6026,29.32158],[-98.59823,29.32412],[-98.53313,29.35087],[-98.52859,29.35359],[-98.5254,29.35659],[-98.51493,29.37417],[-98.51266,29.38147],[-98.51118,29.39619]],[[-97.18604,37.68299],[-97.19346,37.67708],[-97.19773,37.67519],[-97.22859,37.67559],[-97.23997,37.67193],[-97.24536,37.66913],[-97.25446,37.6606],[-97.27158,37.6501],[-97.28189,37.64176],[-97.28878,37.63059],[-97.29219,37.62771],[-97.2971,37.62504],[-97.30289,37.62358],[-97.3049,37.62214],[-97.31226,37.60563],[-97.323,37.60172]],[[-94.59453,39.10684],[-94.59335,39.10469],[-94.5935,39.09988],[-94.59117,39.09631]],[[-94.59453,39.10684],[-94.57705,39.10677],[-94.57046,39.10604]],[[-98.39782,29.5102],[-98.40403,29.47952]],[[-97.09346,32.05605],[-97.09479,32.04471],[-97.09588,32.00385],[-97.11765,31.97177],[-97.11867,31.9646],[-97.08393,31.88541],[-97.08145,31.87726],[-97.08527,31.85148],[-97.09768,31.81997],[-97.09893,31.80798],[-97.10211,31.79667],[-97.10464,31.75687],[-97.10212,31.70105],[-97.10006,31.69275],[-97.09969,31.68525],[-97.09924,31.66892],[-97.10134,31.65295],[-97.10057,31.65019],[-97.09651,31.64285],[-97.09568,31.6294],[-97.0966,31.62502],[-97.10778,31.60146]],[[-93.56931,42.44878],[-93.57022,42.43408],[-93.57075,42.39521],[-93.56936,42.31038],[-93.57051,42.29701],[-93.57068,42.2416],[-93.57179,42.22452],[-93.57047,42.20214],[-93.57083,42.16353],[-93.56932,42.14993],[-93.55558,42.12998],[-93.5535,42.12497],[-93.55262,42.11892],[-93.55266,42.11622],[-93.55412,42.11233],[-93.5649,42.09447],[-93.56945,42.05538],[-93.56982,42.04129],[-93.5714,42.02409],[-93.56974,41.95891],[-93.57003,41.9264],[-93.57121,41.89892],[-93.57035,41.79494],[-93.57093,41.77691],[-93.57022,41.75921],[-93.57787,41.74083],[-93.57591,41.69228],[-93.57607,41.68544],[-93.57862,41.67115],[-93.57581,41.66256],[-93.57561,41.65203]],[[-94.85994,38.82486],[-94.85315,38.8299],[-94.83098,38.84361],[-94.79713,38.87089],[-94.78621,38.89794],[-94.77797,38.90772],[-94.76614,38.91799],[-94.75206,38.93437],[-94.74731,38.93874]],[[-97.15571,33.64059],[-97.15493,33.63032],[-97.14883,33.6133],[-97.1497,33.61099],[-97.1563,33.60515],[-97.16027,33.59947],[-97.16434,33.58733],[-97.16579,33.57984],[-97.1662,33.52042],[-97.16587,33.5133],[-97.16229,33.48868],[-97.16198,33.4806],[-97.16404,33.4595],[-97.16401,33.43926],[-97.16486,33.43667],[-97.1739,33.42553],[-97.1754,33.42215],[-97.17759,33.36919],[-97.18162,33.35976],[-97.18233,33.35604],[-97.18076,33.32412],[-97.17788,33.30423],[-97.1781,33.27069],[-97.17683,33.24133],[-97.17607,33.2362],[-97.1695,33.21698],[-97.16665,33.21221]],[[-94.15158,39.89964],[-94.15776,39.8882],[-94.1689,39.87121],[-94.21979,39.75694],[-94.22109,39.72613],[-94.2446,39.63186],[-94.26226,39.57063],[-94.28235,39.52124],[-94.32604,39.45185],[-94.33441,39.43706],[-94.38427,39.34595],[-94.41052,39.29625],[-94.412,39.29114],[-94.41463,39.28696],[-94.42148,39.27848],[-94.43911,39.26842],[-94.44636,39.26548],[-94.44886,39.26256],[-94.4502,39.25342],[-94.45618,39.24508]],[[-97.46013,35.54121],[-97.4612,35.538],[-97.45938,35.52825],[-97.45975,35.51111],[-97.46475,35.49344],[-97.46502,35.4821],[-97.46616,35.47317],[-97.46799,35.46812]],[[-93.77731,41.59217],[-93.77775,41.58381],[-93.77632,41.54772],[-93.77307,41.52317],[-93.78023,41.51195],[-93.78044,41.50423],[-93.77956,41.4543],[-93.78065,41.43487],[-93.77973,41.41121],[-93.78073,41.38779],[-93.78063,41.3695],[-93.7792,41.34628],[-93.78016,41.32233],[-93.7783,41.31347],[-93.77965,41.29209],[-93.77842,41.27833],[-93.78082,41.25001],[-93.78083,41.22948],[-93.78718,41.1978],[-93.78377,41.18169],[-93.78408,41.16308],[-93.78832,41.14605],[-93.78774,41.13524],[-93.78191,41.12502],[-93.78171,41.11157],[-93.77732,41.10369],[-93.77694,41.10108],[-93.78107,41.08466],[-93.78086,41.07188],[-93.78208,41.05258],[-93.79383,41.03786],[-93.79478,41.03475],[-93.79407,41.01743],[-93.79756,41.00822],[-93.7972,40.96503],[-93.79981,40.94445],[-93.79676,40.92603],[-93.79732,40.91412],[-93.79648,40.90297],[-93.80056,40.88926],[-93.80125,40.88434],[-93.80475,40.84299],[-93.80649,40.83986],[-93.82394,40.81866],[-93.83398,40.79654],[-93.83481,40.79219],[-93.83671,40.7583],[-93.84301,40.73753],[-93.84345,40.72308],[-93.84571,40.71033],[-93.8463,40.68799],[-93.85247,40.66602],[-93.85972,40.65258],[-93.89386,40.62035],[-93.90897,40.60486],[-93.92116,40.59027],[-93.94626,40.56638],[-93.94951,40.56184],[-93.99073,40.41878],[-94.01087,40.34559],[-94.01328,40.21356],[-94.01493,40.18069],[-94.01696,40.17656],[-94.06603,40.1103],[-94.09279,40.08194],[-94.09621,40.00692],[-94.09448,39.97947],[-94.09501,39.97331],[-94.1084,39.95347],[-94.13784,39.92475],[-94.15158,39.89964]],[[-96.23725,38.41543],[-96.2326,38.41358],[-96.22539,38.41602],[-96.20878,38.42645],[-96.20489,38.42731],[-96.19587,38.42733],[-96.17934,38.42289],[-96.17191,38.416],[-96.16952,38.41472],[-96.14754,38.41166],[-96.13552,38.41104],[-96.10972,38.41131],[-96.09239,38.41031],[-96.07056,38.41153],[-96.04582,38.41036],[-96.01829,38.41041],[-95.98281,38.40836],[-95.93008,38.41465],[-95.89494,38.42575],[-95.88394,38.42847],[-95.82394,38.42582],[-95.77504,38.42696],[-95.74124,38.42628],[-95.69287,38.4384],[-95.66293,38.44436],[-95.64598,38.44661],[-95.61372,38.45359],[-95.57983,38.45282],[-95.55483,38.45823],[-95.52874,38.47123],[-95.51296,38.47377],[-95.48954,38.48577],[-95.47537,38.48846],[-95.46211,38.49611],[-95.43462,38.50358],[-95.43152,38.50544],[-95.40845,38.52482],[-95.40041,38.5285],[-95.38724,38.531],[-95.38347,38.53237],[-95.36264,38.54875],[-95.35639,38.55207],[-95.34322,38.55603],[-95.32612,38.55891],[-95.31536,38.56159],[-95.29799,38.56834],[-95.28577,38.5706],[-95.26665,38.57582],[-95.24463,38.58351],[-95.23835,38.58735],[-95.23512,38.59118],[-95.23396,38.59388],[-95.23258,38.60408],[-95.2322,38.62739],[-95.23058,38.63191],[-95.22498,38.6372],[-95.20545,38.64486],[-95.18473,38.65946],[-95.13314,38.67903],[-95.12081,38.68493],[-95.10101,38.69664],[-95.06142,38.70839],[-95.01126,38.7426],[-95.00165,38.7462],[-94.98023,38.75222],[-94.97146,38.75601],[-94.94884,38.76806],[-94.9258,38.78308],[-94.89083,38.80821],[-94.86909,38.81832],[-94.85994,38.82486]],[[-97.323,37.60172],[-97.32425,37.59813],[-97.32425,37.58625],[-97.326,37.58091],[-97.32614,37.57078],[-97.32584,37.54992],[-97.3243,37.53853],[-97.32386,37.49648],[-97.32138,37.43498],[-97.32127,37.41578],[-97.32602,37.3962],[-97.32288,37.37301],[-97.32327,37.36874],[-97.32188,37.34897],[-97.3234,37.34266],[-97.33717,37.32814],[-97.33951,37.32347],[-97.34036,37.31119],[-97.34007,37.26759],[-97.33882,37.25869],[-97.33873,37.22069],[-97.33986,37.21148],[-97.34005,37.19848],[-97.34187,37.19262],[-97.33955,37.18233],[-97.33814,37.01766],[-97.33929,37.00994],[-97.34377,36.99568],[-97.34537,36.98751],[-97.34573,36.94589],[-97.35415,36.89823],[-97.35154,36.88283],[-97.34505,36.85515],[-97.34241,36.81453],[-97.34293,36.80707],[-97.34581,36.79031],[-97.34613,36.78137],[-97.34589,36.61307],[-97.34523,36.59583],[-97.34563,36.54382],[-97.34415,36.53459],[-97.33783,36.52035],[-97.33608,36.50567],[-97.32841,36.48773],[-97.32706,36.48132],[-97.32698,36.40019]],[[-97.10778,31.60146],[-97.10902,31.59732],[-97.11029,31.58112],[-97.11586,31.57143],[-97.11714,31.56121],[-97.12711,31.54316],[-97.1312,31.53068],[-97.13479,31.52266]],[[-97.13479,31.52266],[-97.14597,31.50153],[-97.16288,31.473],[-97.18651,31.43559],[-97.20631,31.40022],[-97.21271,31.38499],[-97.22161,31.34299],[-97.22409,31.33569],[-97.22943,31.32564],[-97.23787,31.31853],[-97.24024,31.31539],[-97.25266,31.29527],[-97.25705,31.28385],[-97.2659,31.27199],[-97.2844,31.24003],[-97.28665,31.23808],[-97.28734,31.23491],[-97.30077,31.21162],[-97.30826,31.1943],[-97.33435,31.12758],[-97.33576,31.12628],[-97.34815,31.12361],[-97.35164,31.12145],[-97.35324,31.11897],[-97.35922,31.1027],[-97.3616,31.09901],[-97.36887,31.09595],[-97.39005,31.08957]],[[-97.48926,35.46192],[-97.49121,35.46121],[-97.49179,35.46008],[-97.48636,35.44627],[-97.48621,35.42986],[-97.48773,35.41968],[-97.49245,35.41048],[-97.49428,35.40458],[-97.49485,35.39172]],[[-97.32698,36.40019],[-97.32692,36.34001],[-97.32829,36.30731],[-97.32763,36.26951],[-97.32584,36.25373],[-97.32595,36.24784],[-97.32829,36.23232],[-97.32855,36.18416],[-97.32738,36.1576],[-97.32849,36.15316],[-97.34222,36.12786],[-97.34484,36.12057],[-97.3452,36.0298],[-97.35484,35.97608],[-97.35702,35.97077],[-97.39315,35.90978],[-97.39405,35.90464],[-97.3947,35.84243],[-97.39854,35.83521],[-97.41046,35.82483],[-97.41341,35.82131],[-97.4155,35.81706],[-97.41635,35.81214],[-97.41688,35.78957],[-97.41632,35.68205],[-97.42084,35.67011],[-97.42424,35.65302],[-97.4249,35.60294],[-97.42686,35.59885]],[[-97.58939,30.85681],[-97.60177,30.8296],[-97.61104,30.81491],[-97.62102,30.79232],[-97.62864,30.76695],[-97.63431,30.7533],[-97.6487,30.70974],[-97.66071,30.67968],[-97.67922,30.64987],[-97.68856,30.64033],[-97.69162,30.63178],[-97.69165,30.62886],[-97.68625,30.60723],[-97.68662,30.60391],[-97.69045,30.59422],[-97.69273,30.58443],[-97.69197,30.53484],[-97.68625,30.51016],[-97.68144,30.49712],[-97.67512,30.48484],[-97.66674,30.45755],[-97.66625,30.45249],[-97.67496,30.40563],[-97.67467,30.402],[-97.67157,30.39381],[-97.67404,30.38124],[-97.67586,30.37735],[-97.70483,30.33165],[-97.70802,30.31475]],[[-97.42686,35.59885],[-97.43436,35.59232],[-97.45136,35.56624],[-97.45793,35.54509],[-97.46013,35.54121]],[[-97.91885,29.88601],[-97.92471,29.88003],[-97.9392,29.86945],[-98.02217,29.79426],[-98.02903,29.78668],[-98.06057,29.74361],[-98.08506,29.72251],[-98.08817,29.71654],[-98.0913,29.70367],[-98.09598,29.69795],[-98.09912,29.69596],[-98.1225,29.68661],[-98.14227,29.68257],[-98.16946,29.66326],[-98.18326,29.65738],[-98.20881,29.64138],[-98.25892,29.6157],[-98.27741,29.59964],[-98.3042,29.58534]],[[-93.77731,41.59217],[-93.77694,41.6448],[-93.77564,41.64733],[-93.77228,41.65032],[-93.76483,41.65151],[-93.71688,41.65275],[-93.64177,41.64955],[-93.62178,41.64946],[-93.59235,41.65027],[-93.57561,41.65203]],[[-94.67315,39.03999],[-94.67956,39.03878],[-94.68478,39.03581],[-94.68789,39.03287],[-94.68989,39.02856],[-94.69328,39.01493],[-94.69439,39.00094],[-94.69761,38.99285],[-94.73464,38.9541],[-94.74731,38.93874]],[[-97.49485,35.39172],[-97.49415,35.34449],[-97.48987,35.33369],[-97.49028,35.31288],[-97.48969,35.29729],[-97.48536,35.28489],[-97.48536,35.21851],[-97.48474,35.21345],[-97.4809,35.20758],[-97.48006,35.20375],[-97.48071,35.19948],[-97.49372,35.18226],[-97.49453,35.17697],[-97.49349,35.17278],[-97.49057,35.16807],[-97.47044,35.1462],[-97.42141,35.09322],[-97.37789,35.04756],[-97.37597,35.04112],[-97.37608,35.00505],[-97.36883,34.95925],[-97.36937,34.95056],[-97.3675,34.94172],[-97.35752,34.92174],[-97.35428,34.9104],[-97.35232,34.9061],[-97.33822,34.88827],[-97.33568,34.88347],[-97.32645,34.85787],[-97.31692,34.84325],[-97.3108,34.83174],[-97.30796,34.82309],[-97.30479,34.80535],[-97.30123,34.79541],[-97.29566,34.78606],[-97.28491,34.76378],[-97.27899,34.75531],[-97.26489,34.7419],[-97.26007,34.73589],[-97.25444,34.72699],[-97.24979,34.71451],[-97.24703,34.70925],[-97.23628,34.69664],[-97.22904,34.68465],[-97.2214,34.66077],[-97.2196,34.64537],[-97.21718,34.63356],[-97.21631,34.62274],[-97.21243,34.61115],[-97.21081,34.60187],[-97.20359,34.58586],[-97.19833,34.57038],[-97.19272,34.55885],[-97.18492,34.52511],[-97.18168,34.51805],[-97.17679,34.51016],[-97.16093,34.48768],[-97.15816,34.48183],[-97.15612,34.47464],[-97.15377,34.4704],[-97.1329,34.44823]]]},"properties":{"region":"stillwater","name":"I35"}}]}
